{"type":"Topology","arcs":[[[24196,17476],[-56,55],[-42,-12],[-22,-33],[-99,-74],[-18,-7],[-37,91],[-36,-16],[-60,11],[-68,77],[-50,-27],[-19,-47],[-72,-6],[-57,19],[-104,-17],[-32,16],[-42,-17],[-39,2],[-84,-52],[-55,-14],[-28,14],[-44,-34],[-19,39],[-46,-4],[-91,-87],[-52,-28],[-85,-21],[-42,-53],[-61,5],[4,-58],[-53,-54],[-92,1],[-73,35],[-26,-65],[-60,-72],[2,-29],[-54,-47],[-31,4],[-107,-28],[-43,-56],[-67,-5],[-45,24],[-27,-36],[-65,23],[-97,-28],[-1,-28],[-29,32],[-64,-10],[-47,19],[-55,-8],[-85,23],[-45,21],[-13,13],[-96,29],[-35,5],[-69,53],[-73,29],[-60,-47],[-42,45],[-70,9],[-37,9],[-46,-30],[-92,11],[-102,35],[-58,4],[-44,-36],[-56,-27],[-135,-17],[-30,-36],[-47,24],[-54,84],[-166,-35],[-50,-16],[-51,5],[-32,18],[-59,-16],[-22,-18],[-112,-155],[-35,3],[-30,-24],[-76,-25],[-28,-39],[-90,1],[-24,10],[-101,-50],[-33,-79],[-49,-41],[1,-47],[-56,-72],[-3,-46],[-112,-31],[-31,-36],[-36,24],[-40,-40],[-60,28],[8,62],[-32,27],[-47,-25],[-44,23],[-26,-4],[-44,49],[5,40],[-35,77],[21,36],[-65,84],[-8,41],[-29,22],[-29,72],[-3,48],[-22,41],[-34,31],[-46,19],[-17,67],[-59,58],[-23,44],[-76,4],[-47,21],[-66,96],[7,68],[-24,72],[-65,-15],[-33,-33],[-20,46],[-82,26],[-63,-18],[-45,54],[-31,19],[-71,-30],[-50,65],[0,91],[27,48],[-21,56],[7,38],[28,45],[-40,30],[-24,44],[-36,22],[-83,-29],[-99,-77],[-40,38],[-24,100],[35,61],[75,53],[9,60],[86,17],[38,85],[77,15],[3,77],[-24,47],[-24,-2],[-54,29],[-55,64],[-73,5],[-91,112],[-16,68],[-17,26],[42,86],[13,94],[27,55],[2,42],[29,35],[5,56],[-31,51],[-1,58],[-55,39],[-50,4],[-52,103],[29,45],[-52,57],[0,74],[-23,17],[-14,94],[-36,35],[-9,67],[-31,58],[17,41],[-12,81],[31,72],[-17,60],[32,40],[-6,79],[-35,7],[-45,77],[-52,35],[-29,5],[64,96],[109,38],[25,31],[-3,51],[-51,-21],[-33,50],[-46,-15],[-13,25],[-81,-37],[-43,16],[-57,64],[-63,16],[-25,41],[-34,88],[-22,110],[-24,52],[7,68],[-28,61],[-63,79],[-7,40],[15,55],[15,117],[-20,66],[7,35],[-18,92],[39,72],[-40,14],[-26,-39],[-37,-25],[-44,20],[-63,7],[-27,-28],[-90,-51],[-36,38],[-46,13],[-39,-7],[-54,26],[-107,34],[-29,36],[-60,-5],[-58,40],[-39,-11],[10,56],[-5,88],[-21,21],[-72,32],[17,80],[-47,43],[35,65],[-5,48],[25,7],[-7,47],[-80,62],[-76,-8],[16,34],[-2,60],[20,49],[-57,82],[-15,81],[20,20],[42,-1],[58,21],[21,40],[31,-40],[76,-55],[31,99],[-4,33],[-48,45],[6,34],[-33,30],[5,100],[24,46],[-31,19],[-20,41],[-98,86],[0,79],[-69,15],[-38,40],[-63,-51],[-55,13],[-27,23],[-49,2],[-24,22],[-54,-28],[-66,59],[-50,-8],[-16,91],[-23,56],[-42,21],[-4,38],[-40,33],[-19,12],[-16,84],[5,50],[-41,57],[39,38],[59,99],[-28,45],[-10,48],[-34,32],[-50,17],[-1,76],[-24,33],[-21,62],[1,64],[-56,53],[-53,-9],[-101,22],[-53,11],[-63,35],[-43,6],[-87,-21],[-20,-53],[-97,-17],[-77,10],[-52,-25],[-41,34],[-6,41],[-24,39],[-56,-1],[-37,24],[-52,80],[-44,-1],[-25,21],[-74,-13],[-32,49],[-50,21],[-37,41],[-79,-13],[-83,30],[-9,49],[6,69],[-41,45],[-53,12],[-9,23],[-28,64],[5,97],[-58,-15],[-32,-57],[-24,-6],[-41,-50],[-84,-16],[-47,4],[-111,26],[-81,38],[-106,4],[-45,-47],[-65,14],[-108,-38],[-96,-25],[-84,-7],[-190,-5],[-25,11],[-76,-16],[-124,62],[-37,12],[2,36],[-47,35],[-27,70],[-58,4],[-136,131],[-46,30],[73,23],[-17,34],[-29,45],[-79,-2],[-46,34],[-37,62],[7,32],[-12,74],[-29,106],[-25,41],[-34,3],[-32,45],[28,62],[-28,44],[23,55],[-24,88],[11,27],[-59,6],[-73,-46],[-28,1],[-86,-67],[-54,-16],[-89,56],[-33,-28],[-27,-14],[-29,33],[-12,20],[-56,7],[0,46],[-39,16],[-23,46],[-50,-81],[-34,-1],[-67,78],[-10,33],[-33,13],[-48,93],[24,28],[-3,66],[-21,58],[-4,43],[-31,22],[4,36],[-32,57],[12,96],[20,12],[30,116],[-39,68],[-69,10],[-49,-20],[-42,0],[-41,34],[-14,-35],[-48,-7],[-47,22],[-24,25],[-7,75],[-39,-18],[-42,6],[-34,42],[5,94],[-15,48],[-46,-23],[-139,52],[-47,-10],[-21,45],[-77,24],[-18,44],[-22,5],[-23,-78],[-43,-39],[-17,-56],[-44,-60],[-40,-3],[-17,-28],[-66,-5],[-67,9],[-42,-36],[-33,0],[-47,38],[-99,12],[-91,43],[2,26],[-168,7],[31,61],[47,79],[70,94],[18,49],[-29,50],[-63,36],[-55,18],[-59,48],[-28,8],[-41,-75],[-55,-31],[-76,-6],[-57,-47],[-40,-14],[-70,-50],[-147,-16],[-62,44],[-100,38],[-82,-12],[-53,-22],[-11,35],[-46,-13],[-42,-31],[-47,8],[-47,4],[-50,47],[-105,-14],[-37,9],[-66,-16],[-39,23],[-55,-91],[-28,-26],[-11,-24],[-47,-29],[-60,-12],[-37,24],[-81,2],[-25,21],[-73,0],[-36,-88],[-15,-6],[9,-86],[25,-38],[-48,-55],[42,-59],[0,-111],[-89,23],[-30,-15],[-21,172],[-22,77],[-33,25],[-124,40],[4,90],[-12,64],[-42,51],[-30,15],[-42,-70],[-51,-18],[-14,40],[-41,44],[-70,9],[-30,-32],[35,-28],[27,35],[52,-41],[-140,-26],[-44,-1]],[[6693,27017],[75,84],[5,56],[-73,-6],[-64,99],[1,40],[-22,66],[38,55],[95,-63],[105,61],[82,-36],[35,-50],[30,18],[16,55],[52,37],[1,60],[21,23],[0,39],[53,23],[49,57],[6,58],[-9,45],[-23,68],[-74,46],[-105,110],[-48,9],[-4,57],[35,97],[18,-7],[91,75],[25,108],[28,40],[17,70],[-4,107],[-11,143],[22,27],[65,5],[20,70],[57,13],[51,43],[69,3],[67,31],[20,21],[61,6],[46,73],[-12,91],[13,53],[61,15],[-39,160],[-26,-3],[-21,45],[-10,78],[8,82],[42,47],[183,4],[14,53],[52,42],[7,37],[51,73],[75,-19],[31,59],[17,58],[-30,21],[-49,8],[14,89],[33,51],[-1,59],[19,49],[47,14],[-28,41],[-24,74],[-3,53],[-91,17],[-68,120],[-7,58],[77,11],[45,26],[71,11],[12,59],[21,29],[51,21],[-10,22],[52,26],[-20,44],[85,59],[-20,68],[76,142],[142,59],[120,35],[105,-28],[11,10],[-20,53],[17,61],[-5,38],[51,59],[1,58],[58,226],[38,91],[69,20],[8,34],[44,-14],[51,65],[59,22],[8,176],[-8,119],[-64,32],[27,137],[30,37],[42,86],[5,35],[56,66],[29,5],[44,65],[2,52],[-54,55],[1,29],[40,18],[18,60],[24,91],[11,76],[57,72],[16,52],[34,35],[53,102],[12,84],[53,60],[28,66],[-7,47],[38,19],[44,-5],[49,59],[76,-10],[20,-16],[47,29],[46,-6],[26,-34],[71,-11],[40,101],[21,27],[29,88],[39,103],[3,40],[-31,59],[32,42],[-54,133],[39,77],[-67,32],[-77,190],[-2,66],[22,66],[10,95],[21,33],[14,59],[30,73],[89,115],[32,62],[92,-96],[56,80],[-95,80],[18,36],[82,59],[39,42],[43,-11],[22,-33],[38,31],[29,54],[8,42],[52,28],[34,38],[35,75],[22,16],[1,71],[58,7],[36,-29],[81,-21],[62,-6],[32,24],[24,50],[12,56],[29,25],[27,112],[3,47],[33,82],[24,166],[47,-8],[52,58],[14,71],[-5,41],[16,69],[-14,16],[47,96],[60,17],[71,-1],[27,27],[20,139],[-17,32],[30,123],[11,-1],[107,-15],[118,107],[32,7],[32,10],[20,104],[-21,98],[40,8],[35,-15],[85,-91],[5,-18],[61,-35],[181,-32],[27,19],[95,-8],[6,-38],[106,-12],[-1,38],[-23,43],[7,39],[31,67],[48,266],[39,100],[109,18],[82,52],[40,-45],[292,-213],[54,-83],[77,-1],[276,-5],[20,44],[74,-5],[49,39],[56,-15],[76,25],[35,45],[44,10],[36,-3],[44,70],[41,115],[35,58],[-10,30],[55,50],[3,40],[6,54],[27,23],[45,11],[42,-23],[81,-11],[62,3],[56,57],[46,14],[19,83],[-27,66],[2,32],[-39,9],[-23,26],[36,103],[-58,66],[-8,39],[36,21],[88,-2],[26,11],[65,-11],[65,51],[49,23],[54,56],[47,19],[82,-11],[53,74],[9,34],[30,18],[19,61],[34,30],[1,35],[43,67],[27,8],[9,60],[80,27],[37,48],[35,-19],[90,14],[87,88],[-26,124],[0,54],[-25,87],[-71,29],[-10,46],[3,64],[29,41],[98,-23],[90,-75],[16,31],[85,-15],[-6,-28],[57,-13],[50,-37],[6,-46],[54,-4],[41,-44],[61,9],[36,77],[151,27],[49,40],[50,7],[49,-34],[45,5],[5,44],[34,49],[-43,6],[-3,27],[50,44],[40,53],[20,71],[-46,23],[-17,29],[80,88],[-31,84],[3,32],[37,22],[24,63],[17,-5],[15,51],[-55,40],[26,34],[49,20],[18,30],[59,15],[32,21],[26,106],[34,27],[49,5],[66,40],[23,-22],[3,-47],[26,-3],[16,-124],[264,-51],[36,19],[25,-20],[31,79],[91,-6],[5,-117],[14,-25],[52,-18],[40,-59],[-31,-116],[-29,-43],[14,-9],[49,-88],[34,-21],[61,-13],[46,18],[55,-42],[23,-40],[33,-21],[-21,-65],[19,-49],[37,-21],[58,22],[49,-57],[92,-40],[29,-60],[51,11],[42,-32],[48,-16],[-10,-35],[19,-28],[71,-47],[31,21],[60,14],[22,-56],[50,-27],[21,-41],[67,-25],[73,2],[34,-7],[74,-48],[43,7],[24,106],[40,45],[27,63],[24,18],[1,45],[24,45],[1,71],[18,63],[40,-39],[26,-50],[63,-12],[83,-48],[65,20],[41,-15],[48,42],[61,-18],[34,15],[76,-48],[63,3],[42,-29],[18,-67],[91,-53],[19,-23],[47,24],[69,6],[128,64],[36,-44],[32,6],[6,44],[46,-13],[82,22],[61,2],[47,-29],[55,18],[113,-79],[48,5],[96,-41],[25,-27],[-15,-40],[87,-67],[-9,-56],[61,-108],[-6,-42],[49,-62],[75,-46],[18,4],[97,108],[57,-12],[19,16],[89,21],[44,-16],[51,31],[67,-3],[18,35],[20,82],[49,31],[49,-22],[43,47],[24,-5],[15,-68],[59,32],[34,-11],[41,39],[29,8],[93,-92],[37,-69],[101,37],[71,0],[50,-57],[66,-32],[91,-61],[4,-54],[59,-129],[47,-9],[79,4],[37,-31],[37,9],[27,34],[59,-17],[28,48],[94,-47],[86,10],[26,-41],[43,-23],[49,-55],[6,-46],[55,-10],[69,25],[86,66],[57,7],[80,-13],[72,46],[31,3],[34,50],[31,11],[38,43],[51,24],[56,-72],[56,-27],[31,7],[105,69],[74,29],[-7,65],[67,130],[0,39],[100,65],[42,-4],[67,72],[39,25],[63,-57],[97,-22],[44,12],[91,-64],[38,-4],[43,-28],[65,13],[77,70],[56,3],[72,-18],[76,78],[71,-11],[45,-23],[4,-37],[49,-36],[51,-101],[52,58],[71,0],[29,-34],[22,-73],[-14,-48],[38,-41],[-9,-47],[94,-48],[6,-76],[48,-16],[73,-111],[-37,-95],[5,-40],[-14,-42],[29,-100],[8,-19],[54,-26],[19,-46],[101,-23],[16,-110],[80,-7],[83,40],[28,-24],[8,-38],[69,-64],[31,66],[39,20],[73,-17],[4,-55],[30,-70],[76,11],[172,-37],[-26,-69],[-9,-58],[68,-77],[17,-36],[6,-64],[-6,-61],[84,-43],[20,-36],[2,-43],[131,-117],[18,-122],[28,-45],[-18,-85],[102,3],[261,39]],[[26604,36619],[5,-106],[33,-48],[-10,-54],[43,-1],[86,-58],[41,-39],[80,-96],[26,-9],[39,-56],[55,-20],[28,-72],[92,-20],[33,-43],[36,-2],[29,-41],[5,-59],[-19,-58],[-116,-31],[-48,-36],[-82,-8],[-65,-61],[-29,-8],[-15,-44],[-36,1],[-57,-60],[-57,23],[-32,-9],[2,-105],[11,-58],[80,-39],[47,-46],[40,-15],[22,-76],[39,-11],[39,-63],[63,-7],[99,-58],[46,-15],[42,5],[27,-71],[-4,-39],[29,-99],[31,-59],[84,-37],[60,-56],[18,-36],[-8,-49],[1,-57],[-76,-68],[-43,-29],[-16,-52],[-102,-58],[-38,3],[9,-97],[52,-31],[22,-36],[19,-71],[39,-39],[65,31],[41,-64],[-62,-73],[-25,-14],[-64,1],[-4,-31],[-52,-22],[-8,-62],[46,-29],[-5,-38],[-46,16],[-100,133],[-33,23],[-68,-22],[-15,-44],[-72,-73],[-27,-2],[-46,41],[-21,-5],[16,-53],[32,0],[28,-44],[41,0],[20,-28],[70,-49],[43,-69],[51,-47],[-6,-58],[29,-41],[61,-26],[68,15],[37,-90],[-28,-24],[-21,-114],[10,-40],[57,-62],[24,-8],[-21,-55],[1,-61],[16,-29],[-5,-46],[21,-43],[-13,-36],[-80,-11],[-22,-47],[-61,-6],[-13,-33],[-68,-65],[-30,-54],[58,-33],[74,-114],[103,-82],[57,-21],[-26,-111],[-89,-104],[-85,-164],[84,-151],[-17,-54],[3,-45],[28,-32],[18,-80],[10,-94],[-50,-130],[47,-64],[-15,-59],[44,-18],[45,-73],[25,2],[59,-52],[88,-9],[74,20],[38,-33],[49,-12],[39,-32],[35,52],[37,29],[41,65],[51,8],[51,-23],[49,-73],[51,-55],[62,-13],[81,-31],[47,-92],[43,-14],[33,10],[27,-1],[71,52],[87,1],[96,107],[4,44],[-55,112],[28,91],[22,44],[-10,67],[72,87],[54,-7],[46,10],[41,36],[115,41],[40,45],[81,-39],[66,40],[82,9],[26,-21],[54,38],[66,10],[14,-29],[-12,-83],[86,-102],[28,-59],[63,-69],[83,-51],[13,-31],[41,-14],[38,-37],[40,-17],[22,-51],[60,-54],[44,19],[46,-33],[31,-42],[-19,-47],[3,-47],[22,-25],[4,-93],[44,-40],[72,-9],[51,20],[74,10],[87,-44],[67,-21],[66,55],[35,51],[11,40],[51,11],[58,-16],[66,-53],[54,39],[18,-26],[70,8],[26,-32],[53,-11],[77,-45],[28,16],[27,-38],[108,-28],[34,-36],[18,-139],[34,-65],[82,-64],[38,-42],[20,-96],[-22,-63],[23,-48],[43,-35],[51,-104],[4,-90],[15,-67],[49,-100],[24,-23],[80,102],[50,-37],[54,-89],[22,-93],[1,-78],[54,-102],[14,-66],[43,-8],[-35,-23],[-78,-3],[-16,27],[-91,0],[-57,33],[-54,16],[-15,-26],[3,-96],[-33,-50],[-33,-19],[-109,-176],[-30,-30],[8,-36],[48,-83],[33,-22],[-6,-29],[8,-16],[-37,-92],[-69,-64],[-2,-43],[55,-59],[42,-3],[24,66],[-21,16],[-4,62],[16,7],[61,-26],[67,-68],[-61,-67],[-64,6],[-16,-79],[30,-108],[54,-18],[70,-50],[-35,-46],[45,-63],[-1,-64],[-13,-84],[-30,-33],[-5,-40],[28,-29],[-11,-34],[8,-77],[-6,-98],[21,-36],[-42,-82],[-26,-74],[52,-117],[49,-77],[90,-110],[38,-27],[11,-53],[26,-40],[36,-12],[33,-62],[35,-35],[9,-43],[31,-52],[55,13],[65,-24],[74,11],[40,60],[-32,73],[2,30],[-30,25],[-15,46],[-53,68],[-13,48],[32,40],[11,54],[72,43],[24,-28],[50,-5],[84,18],[91,-31],[40,-33],[38,35],[77,-16],[-3,-70],[36,-83],[63,-55],[42,-67],[4,-28],[36,-32],[7,-101],[26,-32],[40,-93],[-68,8],[-45,-92],[-37,-18],[-14,-60],[37,-63],[8,-65],[29,-46],[36,-26],[13,-33],[55,-13],[24,-101],[43,-61],[-13,-25],[6,-76],[39,-30],[7,-47],[-31,-51],[75,-113],[51,-27],[24,-29],[70,0],[5,-29],[49,-89],[-9,-44],[-40,-205],[-60,27],[-32,59],[-63,-17],[-75,-9],[-92,6],[-64,-91],[56,-37],[1,-42],[-29,-32],[20,-41],[2,-41],[-43,-13],[-19,-50],[7,-72],[-106,-51],[44,-57],[40,-49],[10,-38],[-37,-26],[17,-58],[-28,-61],[47,-3],[36,54],[56,-29],[5,45],[25,6],[28,-43],[19,59],[77,-1],[85,-47],[-31,-69],[32,-26],[133,-12],[83,18],[54,-7],[52,-28],[45,2],[113,-57],[16,-22],[59,-26],[17,-45],[5,-70],[19,-33],[-19,-65],[18,-63],[-13,-69],[-54,-64],[-32,-97],[8,-66],[31,-58],[38,11],[82,-51],[78,16],[56,-14],[43,9],[91,42],[41,78],[22,85],[37,9],[15,36],[71,10],[78,34],[66,-60],[34,-5],[24,-30],[-26,-96],[-25,-18],[-16,-72],[-13,-125],[-37,-26],[-5,-31],[17,-50],[-32,-6],[-34,-60],[-53,-25],[0,-93],[27,-20],[13,-54],[-10,-74],[27,-33],[65,5],[57,-11],[142,-60],[86,-69],[52,-115],[22,-26],[19,-128],[-46,-46],[-13,-88],[19,-96],[53,-74],[22,-47],[-16,-52],[17,-27],[-27,-134],[67,35],[24,-9],[92,46],[58,-7],[-9,-55],[22,-9],[11,-43],[-22,-38],[-37,-9],[-10,-32],[-56,-53],[25,-85],[24,-17],[43,-35],[54,-16],[81,24],[6,-112],[67,-72],[58,-45],[-17,-21],[-14,-77],[40,-34],[3,-42],[29,-43],[12,-131],[-14,-31],[16,-106],[28,-61],[-61,-90],[-15,-57],[35,-63],[-2,-34],[-71,-65],[-37,-51],[-65,-39],[-56,-59],[-10,-34],[-36,-61],[15,-59],[-27,-64],[29,-63],[-13,-53],[25,-63],[-50,-18],[-24,-28],[4,-38],[-36,-38],[19,-108],[-12,-49],[49,-59],[14,-82],[-40,-98],[-23,-22],[-20,-40],[-6,-54],[-8,-55],[35,-63],[6,-85],[-18,-52],[40,-64],[15,-69],[42,-32],[-34,-68],[-16,-108],[35,-142],[-49,-151],[5,-63],[16,-58],[-31,-21],[-43,2],[-19,-44],[-19,-57],[-62,-15],[0,-33],[25,-26],[-45,-96],[-26,-11],[-22,-20],[-30,-73],[-1,-47],[-24,-22],[13,-67],[-27,-162],[-32,-84],[16,-78],[18,-23],[-22,-116],[-48,-35],[-7,-49],[-35,-78],[-37,1],[-33,-28],[-14,-49],[-59,-38],[-20,-71],[-33,50],[-67,52],[-63,31],[-14,25],[-6,67],[33,52],[-45,40],[-2,31],[-70,-25],[-87,0],[-51,-12],[-8,-38],[-134,-72],[-6,-114],[-37,-7],[7,-66],[-20,-52],[-2,-43],[26,-19],[-53,-108],[-16,52],[-61,72],[-8,76],[-44,0],[-21,-30],[-8,-64],[-52,-90],[-29,-21],[-35,-83],[-2,-31],[-45,-42],[-40,-79],[-48,-61],[-14,-98],[-15,-12],[-38,7],[-46,-39],[-33,-62]],[[32997,16810],[-33,-29],[4,-52],[-12,-101],[-64,-5],[-74,-57],[-58,66],[-14,3],[-47,32],[-37,3],[-6,65],[-38,90],[-59,61],[-86,-25],[-39,-3],[-36,-30],[-36,27],[-101,20],[-30,-5],[-62,81],[-43,-18],[-8,-49],[-24,-32],[-34,-84],[-42,-15],[-53,-102],[36,-87],[-25,-65],[-31,-36],[27,-64],[-18,-47],[-3,-76],[-50,-26],[-61,-66],[-8,-111],[-43,-10],[-21,36],[-75,32],[-77,-1],[-38,23],[29,32],[-2,59],[-19,9],[-93,229],[-61,21],[-39,65],[-22,8],[-45,-18],[-39,-35],[-6,-39],[-26,-32],[-69,19],[-62,1],[-92,-22],[-85,91],[-44,35],[-22,37],[-1,58],[-108,93],[-72,-43],[-137,-29],[-8,26],[-73,6],[-2,-55],[-28,-43],[-100,-81],[-22,-113],[-80,-20],[-66,58],[-29,1],[-88,-29],[-34,4],[-109,-52],[-40,58],[-73,42],[-149,-82],[-31,-56],[-56,-20],[-48,12],[-39,-60],[-13,-52],[-100,-42],[-29,12],[-83,-67],[-28,-36],[-2,-32],[-14,-78],[17,-118],[-11,-89],[-31,-31],[-86,24],[-54,-4],[-29,13],[-66,4],[-16,-26],[-64,-3],[-14,-18],[-134,-46],[-77,75],[21,46],[2,42],[-23,57],[-9,78],[-28,70],[-46,-9],[-34,-50],[-41,-10],[-30,-53],[-19,-7],[-23,10],[-7,62],[-73,114],[56,85],[38,7],[33,26],[-24,44],[-21,-5],[-60,50],[7,34],[-48,65],[-21,62],[-46,49],[-5,58],[17,60],[7,97],[-32,45],[-16,62],[21,52],[-61,4],[-43,32],[-40,47],[-46,-64],[-82,28],[-79,118],[-24,5],[-50,47],[-28,2],[-31,32],[-35,115],[-60,22],[-31,38],[-21,57],[-73,44],[-21,42],[-34,34],[-123,-31],[-66,32],[-104,12],[-89,53],[-58,-38],[-70,-21],[-71,5],[-40,14],[-52,-16],[-27,30],[-72,28],[-52,-1],[-96,-95],[-30,6],[-109,105],[-39,-17],[-53,22],[-89,-10],[-62,-12],[-18,12],[-68,2],[-23,-29],[-36,21],[-71,-9],[-17,34],[-4,59],[-14,34],[-39,-9],[-53,19],[-19,26],[-43,-46],[-45,-22],[-105,66],[-37,5],[-66,-12],[-127,-58],[-41,47],[-17,-14],[-55,4],[-33,-24],[-64,-19],[-23,30],[-56,-15],[-33,-48],[-46,-37],[-52,8],[-19,25],[-3,43],[-51,-12],[-27,19],[-62,-24],[-40,25],[-22,-40],[-59,-13],[-25,7],[-33,-37],[-30,14],[-60,-74],[-90,-54],[-24,-24],[-71,76],[-115,-33],[-36,-34],[-21,3]],[[39805,4520],[19,15],[118,90],[56,21],[56,1],[72,-12],[102,-71],[78,-22],[98,-4],[91,32],[29,-4],[54,-9],[100,-36],[105,-22],[56,10],[60,42],[68,71],[50,55],[109,66],[25,26],[57,87],[57,54],[92,49],[40,38],[67,43],[82,54],[129,67],[83,14],[81,49],[43,6],[76,-9],[88,-24],[102,-10],[93,-43],[79,-3],[107,30],[48,53],[90,95],[121,147],[41,30],[85,38],[84,24],[74,33],[55,3],[79,-18],[59,4],[68,21],[59,30],[32,0],[101,-31],[83,1],[75,26],[77,58],[101,152],[65,156],[102,115],[28,64],[57,92],[12,96],[19,66],[13,42],[11,102],[17,51],[38,82],[44,65],[24,53],[89,102],[60,70],[8,66],[29,42],[71,40],[92,72],[33,77],[-9,49],[-60,120],[-6,51],[-14,109],[-27,122],[-56,81],[-92,54],[-64,56],[-29,92],[-9,56],[-65,191],[-32,61],[-71,95],[-15,94],[0,80],[13,38],[56,97],[38,69],[3,50],[5,38],[-13,72],[-44,81],[-48,62],[-65,39],[-65,80],[-53,44],[-87,91],[-52,89],[-107,-14],[-32,5],[-39,29],[-31,65],[-61,68],[-114,55],[-62,56],[-33,70],[-17,79],[2,75],[21,148],[31,106],[-11,55],[-24,39],[-31,16],[-69,1],[-147,32],[-46,64],[-15,65],[1,55],[31,88],[1,92],[-117,-1],[-31,-45],[-67,35],[-33,-31],[-41,-92],[-142,24],[-127,-53],[-16,-70],[70,-50],[34,2],[3,-82],[-122,-12],[-13,-98],[-406,30],[-3,49],[-159,13],[-167,7],[3,49],[-291,0],[-41,7],[-24,38],[-42,3],[30,-133],[-135,4],[2,50],[-111,4],[-33,-47],[-234,212],[-165,-231],[-92,92],[-55,-78],[-103,114],[11,19],[-140,116],[-28,-39],[-151,-209],[-119,99],[-109,-201],[-67,-121],[-77,66],[-75,104],[-53,58],[12,65],[-114,40],[-3,-9],[-146,10],[-123,14],[-43,-186],[117,-49],[-13,-47],[120,-52],[-47,-143],[-114,44],[-10,-34],[-114,47],[-19,-54],[-205,83],[56,204],[18,126],[-311,134],[-64,62],[-93,73],[-117,110],[-71,-95],[-109,-189],[-17,-38],[-320,154],[-49,-4],[-74,51],[6,13],[-102,70],[-71,-126],[-110,79],[-44,-60],[-47,-94],[-77,57],[-38,-78],[-69,55],[-122,122],[-329,-53],[-27,92],[-186,-79],[-14,-17],[-44,21],[-66,37],[-82,69],[-20,-34],[-59,-50],[-68,175],[-4,68],[-72,144],[24,19],[-51,77],[42,39],[-37,43],[-49,81],[-46,-34],[-138,238],[-40,56],[-31,4],[-68,-50],[0,56],[-33,188],[6,15],[122,50],[150,53],[0,15],[117,30],[-41,73],[-76,-26],[-12,93],[-90,173],[-3,29],[-34,47],[-44,-20],[-72,52],[-28,105],[-58,-19],[-53,1],[20,-79],[-66,-40],[-32,65],[-25,-12],[-43,120],[17,11],[-32,67],[-27,57],[2,47],[4,73],[-18,-1],[-13,84],[-54,118],[-97,29],[-15,21],[31,32],[19,75],[20,37],[-21,60],[16,10],[-15,76],[7,33],[-22,29],[0,97],[40,25],[-1,65],[69,27],[6,18],[-43,154],[-9,78],[11,82],[-9,43],[6,103],[-8,47],[-94,-76],[-55,-48],[-77,-81],[-133,31],[-47,-50],[-16,-45],[-26,-17],[-33,-69],[-84,55],[-47,-1],[7,82],[-15,116],[-30,3],[18,48],[-18,29],[10,61],[19,23],[32,74],[-44,-10],[-17,25],[-83,21],[-22,-10],[-74,-66],[-39,0],[-27,-60],[-95,48],[-104,-13],[-17,29],[-50,-7],[3,-64],[-37,-17],[3,67],[-21,63],[-10,71],[-65,108],[50,12],[-27,40],[-30,-3],[-36,43],[2,24],[27,42],[-9,82],[-35,114],[-34,35],[-82,-34],[-89,22],[1,29],[32,43],[26,21],[105,122],[28,42],[52,8],[19,76],[-30,57],[-37,48],[-59,2],[-28,75],[-28,27],[-38,77],[-26,5],[-25,89],[-39,6],[-31,41],[-39,8],[-29,38],[-46,83],[26,119],[45,52],[-6,46],[-69,28],[-13,28],[-33,7],[-12,57],[26,56],[13,82],[-8,37],[14,76],[-12,127],[-54,73],[-48,47],[-75,54],[-57,0],[-58,38],[-32,39],[-28,56],[2,32],[-45,31],[-35,62]],[[26604,36619],[206,3],[75,-38],[59,82],[55,-30],[55,-1],[17,-28],[61,-21],[14,53],[43,74],[25,57],[48,-49],[78,44],[33,-3],[36,34],[52,3],[29,32],[71,17],[3,114],[95,115],[50,47],[41,56],[25,-26],[71,14],[29,52],[-4,75],[-19,35],[61,46],[18,66],[-4,34],[94,79],[33,53],[-3,26],[-3,58],[31,37],[86,44],[2,99],[14,28],[-13,59],[40,115],[47,26],[40,-19],[40,17],[36,-28],[24,16],[42,-13],[233,196],[86,-6],[92,6],[26,15],[302,49],[314,55],[262,46],[452,43],[65,7],[188,92],[174,6],[170,-48],[69,12],[107,-41],[20,32],[73,11],[34,-36],[200,-20],[116,52],[95,56],[39,23],[42,88],[65,29],[135,27],[107,-64],[67,-16],[50,18],[41,15],[38,111],[54,0],[93,-14],[65,-44],[133,40],[312,71],[175,42],[66,-20],[148,-62],[13,-5],[91,31],[54,54],[61,-33],[39,17],[152,42],[97,42],[63,112],[50,186],[24,195],[36,34],[76,60],[165,117],[34,18],[48,86],[14,81],[26,49],[14,111],[14,47],[61,135],[51,69],[54,64],[65,40],[35,57],[-2,65],[-34,84],[38,72],[81,-9],[17,74],[33,-59],[23,8],[49,53],[4,35],[39,27],[47,-36],[-39,-53],[43,-16],[37,23],[43,-7],[87,71],[24,43],[26,-13],[74,-52],[2,38],[-35,14],[17,40],[67,-7],[51,19],[26,36],[-22,33],[61,22],[27,36],[30,-37],[46,-3],[51,24],[72,-31],[63,-32],[31,22],[36,-34],[53,41],[60,18],[-12,51],[10,25],[115,-51],[18,37],[-23,58],[13,74],[39,50],[65,17],[48,-66],[69,14],[61,10],[-35,70],[34,20],[47,-34],[10,45],[-2,68],[34,16],[45,-55],[7,-30],[41,18],[47,88],[27,-21],[1,-39],[-18,-41],[28,-55],[92,25],[45,43],[22,79],[49,1],[23,-93],[72,-59],[46,2],[15,33],[-32,58],[32,13],[57,-31],[3,-17],[-50,-58],[39,-11],[73,29],[19,-7],[58,6],[83,-45],[23,14],[16,49],[59,1],[44,37],[53,-50],[7,-27],[54,-15],[16,-82],[-2,-42],[27,-38],[47,22],[22,34],[33,16],[23,-28],[28,-114],[72,-63],[61,-77],[24,-14],[87,12],[29,-27],[-38,-43],[-47,-6],[-3,-46],[45,-59],[43,-18],[58,12],[11,21],[-44,120],[10,17],[87,8],[69,-30],[43,-82],[-24,-71],[-72,-73],[16,-68],[57,-29],[134,14],[91,-44],[35,-63],[-10,-26],[-50,-28],[-76,31],[-49,43],[-44,-23],[-2,-45],[30,-83],[44,-34],[21,-16],[79,-1],[38,-15],[50,-45],[40,1],[71,125],[24,16],[46,-20],[-35,-97],[40,-7],[28,45],[27,-13],[-34,-115],[38,-76],[-19,-79],[-58,-48],[7,-48],[76,-44],[8,-16],[2,-73],[16,-31],[71,-46],[96,-82],[34,-44],[13,-40],[-8,-65],[15,-30],[41,-13],[60,8],[34,-44],[-95,-63],[-14,-107],[14,-26],[39,-11],[94,83],[46,11],[40,-41],[-55,-61],[-23,-41],[38,-61],[66,-17],[176,32],[-39,-73],[-34,-135],[-67,-41],[72,-54],[65,-49],[72,-76],[-156,-228],[279,-173],[52,-467],[119,-97],[71,-7],[30,-25],[-11,-48],[-76,-42],[-31,50],[-24,11],[-39,-54],[-7,-42],[35,-55],[113,13],[2,-36],[-58,-53],[1,-57],[100,-46],[9,-70],[21,-19],[2,-54],[61,21],[16,-116],[-18,-37],[16,-32],[65,39],[36,-62],[-32,-61],[23,-19],[75,31],[-9,-52],[-53,-15],[-30,-78],[31,-52],[41,-8],[-5,-52],[-48,6],[-25,37],[-70,-4],[-3,43],[-39,-17],[-26,-75],[-30,-24],[53,-48],[38,-12],[16,-40],[-5,-39],[16,-36],[68,-2],[-31,-69],[-22,-20],[62,-62],[70,-25],[0,-58],[-15,-45],[4,-52],[56,0],[46,-75],[14,-52],[-4,-41],[46,-44],[49,-85],[48,-33],[108,-40],[23,-25],[6,-51],[41,-113],[53,-57],[63,-34],[75,-59],[36,-3],[78,14],[22,-32],[-68,-81],[29,-76],[64,-8],[-51,-60],[7,-19],[65,-19],[-26,-68],[42,-23],[27,-46],[49,13],[17,-31],[-55,-14],[35,-94],[41,24],[-23,-77],[-7,-69],[19,-32],[55,-39],[2,-55],[25,-30],[25,-47],[86,33],[0,-42],[21,-41],[50,-11],[17,49],[42,65],[15,-26],[-25,-38],[-3,-64],[30,-20],[22,70],[67,-38],[17,39],[-28,20],[29,39],[25,-15],[10,-82],[19,-32],[53,-32],[13,-47],[40,-25],[28,23],[22,-24],[5,-45],[-31,-79],[-63,-14],[15,-90],[-44,-37],[18,-61],[55,-33],[23,27],[28,-87],[-2,-38],[23,-33],[36,3],[-9,-73],[-70,-38],[-13,-79],[8,-86],[25,-81],[44,4],[44,-32],[43,37],[24,-19],[-18,-100],[-20,-63],[26,-18],[40,24],[-8,-66],[17,-31],[40,0],[-98,-83],[-14,28],[-46,-1],[-14,-46],[50,8],[-4,-50],[25,-41],[28,12],[-14,43],[23,39],[30,1],[9,-49],[33,-30],[35,58],[26,-61],[5,-79],[58,-3],[-28,-43],[6,-23],[83,-18],[-6,63],[81,3],[29,-34],[13,-28],[39,5],[46,-39],[-8,-85],[31,-13],[22,53],[75,-23],[-14,82],[31,13],[67,-59],[38,19],[32,-28],[31,-66],[8,-86],[49,12],[-22,-105],[75,-52],[-4,-29],[-48,19],[-35,-10],[12,-48],[44,32],[31,-49],[-31,-30],[-40,-6],[5,-34],[20,-27],[54,-7],[-27,-43],[14,-28],[95,14],[11,-26],[-29,-66],[60,-2],[33,-27],[-5,-31],[-33,-41],[62,-29],[-18,-39],[-8,-93],[12,-23],[86,-16],[-26,-54],[-15,-68],[7,-38],[75,-58],[-40,-43],[-11,-49],[-64,12],[-36,-37],[20,-26],[45,22],[25,-42],[-13,-28],[-77,29],[1,-35],[113,-27],[71,3],[94,-46],[55,23],[50,-68],[-19,-43],[-23,-1],[-12,54],[-19,10],[-28,-45],[-44,-33],[39,-50],[131,-26],[-10,-44],[38,-41],[21,45],[57,-4],[-3,-42],[56,-41],[-21,-67],[52,-7],[30,-43],[12,-97],[47,21],[62,-86],[38,6],[50,-51],[30,1],[114,-36],[-73,-68],[81,-70],[62,18],[39,-19],[9,-44],[52,-29],[19,33],[33,-37],[-9,-35],[119,-59],[50,12],[26,50],[56,-23],[11,-57],[46,28],[29,-79],[-64,31],[-32,-16],[-24,-58],[42,8],[17,-55],[36,-35],[69,-35],[76,-52],[42,-19],[-25,-40],[38,-4],[62,-49],[2,-26],[-55,-29],[0,-61],[-45,-27],[44,-62],[40,4],[-16,-51],[46,-20],[-10,-65],[-70,-66],[92,-8],[-8,-56],[78,-42],[-59,-115],[-22,11],[-65,-27],[-21,-33],[13,-61],[48,-8],[20,-33],[28,33],[27,-56],[40,14],[-11,-81],[33,-28],[-49,-49],[-43,1],[-17,-35],[68,0],[-22,-33],[43,-48],[48,-32],[-45,-89],[-3,-85],[7,-84],[-11,-53],[23,-31],[42,30],[-11,-74],[40,-9],[-16,-36],[32,-53],[64,-6],[24,-75],[32,-15],[30,-64],[58,-16],[35,-41],[-83,-3],[32,-69],[28,-16],[37,9],[1,-49],[-32,-121],[18,-27],[33,-105],[18,-18],[41,20],[16,-39],[-49,-51],[48,-51],[78,-66],[8,-46],[-29,-80],[54,-36],[-11,-58],[48,17],[19,-83],[-4,-42],[33,-22],[10,43],[48,-93],[-24,-5],[13,-102],[-2,-40],[31,-92],[6,-58],[-29,-41],[50,-16],[20,-60],[-13,-49],[19,-30],[-44,-39],[22,-26],[-36,-32],[-22,-42],[15,-43],[-21,-40],[-1,-67],[-53,6],[-28,-14],[14,-73],[15,-21],[-12,-47],[41,1],[0,-54],[14,-43],[-54,5],[-28,-67],[10,-18],[-37,-40],[79,-77],[-9,-62],[-50,-49],[17,-56],[-45,6],[-32,-56],[32,-26],[-17,-39],[60,30],[4,-58],[43,-5],[-14,-50],[20,-40],[-34,-53],[54,-28],[34,35],[27,-29],[-7,-65],[42,-15],[30,-69],[-47,-22],[-51,-42],[10,-46],[86,-1],[22,-87],[-35,-45],[22,-48],[-49,-60],[-9,-46],[-45,17],[-47,-5],[-10,-72],[46,-18],[-21,-27],[-37,4],[-11,-48],[71,16],[24,-40],[-45,-50],[-73,30],[7,-47],[-32,-49],[-44,-42],[-12,-48],[-41,15],[-15,-42],[27,-114],[-70,3],[9,-71],[-47,36],[24,-75],[55,7],[-12,-50],[8,-45],[-48,20],[-22,-44],[40,-17],[-28,-38],[44,-22],[69,-53],[-18,-51],[-52,-81],[-42,-4],[-51,-44],[41,-63],[-71,-2],[-20,-67],[-28,34],[-43,-2],[-17,49],[-28,-12],[24,-72],[-5,-32],[-49,5],[22,59],[-28,4],[-29,-34],[-7,-120],[-15,-53],[-41,-10],[33,-53],[55,11],[24,-50],[-47,-34],[-20,29],[-66,-85],[-30,-20],[-19,59],[-26,-42],[12,-67],[-6,-55],[-24,-52],[31,-30],[-23,-34],[37,-37],[-25,-34],[38,-30],[-2,66],[22,14],[33,-41],[-16,-73],[-31,-34],[33,-28],[66,23],[36,-35],[-3,-63],[-56,14],[6,-32],[67,-23],[-73,-50],[42,-32],[24,-55],[-36,-16],[-22,-69],[-27,9],[-24,-70],[32,-31],[-23,-59],[18,-53],[32,-19],[-26,-36],[-26,7],[-3,-130],[-28,9],[-18,-45],[20,-45],[-60,1],[-22,-113],[36,-29],[-26,-34],[-54,-39],[-49,-83],[66,-41],[-19,-40],[-47,-5],[28,-57],[64,-6],[-80,-146],[-19,-136],[42,-36],[-1,-25],[-51,-43],[41,-64],[35,-99],[33,-13],[-11,-48],[16,-77],[-25,-24],[40,-44],[-18,-48],[30,-33],[25,-52],[16,-67],[-21,-78],[37,-47],[27,-88],[-29,-27],[-25,-88],[21,-43],[-6,-35],[-32,-1],[-2,-38],[22,-27],[22,-78],[55,-8],[-10,-47],[22,-13],[-28,-56],[3,-34],[-11,-27],[-38,4],[-29,-28],[-46,-12],[28,-69],[19,-16],[-30,-76],[21,-55],[-21,-31],[23,-90],[-28,-36],[19,-20],[41,2],[14,-75],[-8,-39],[17,-36],[-19,-30],[-39,2],[12,-43],[44,-17],[25,-41],[49,-47],[105,37],[8,-61],[-31,-25],[-36,-111],[44,-68],[0,-75],[35,-38],[55,-37],[-34,-99],[33,-21],[-16,-46],[38,-63],[-4,-21],[-54,-46],[22,-55],[-8,-45],[20,-79],[28,-29],[-26,-115],[-27,-53],[22,-62],[-43,-30],[76,-14],[14,-23],[-15,-48],[-84,-36],[-41,-93],[-25,-33],[-37,29],[-89,-30],[-20,40],[-38,-5],[-18,-43],[-53,-26],[-8,-25],[-53,-49],[-6,-36],[13,-55],[57,-45],[27,-55],[36,-16],[33,-56],[-2,-44],[20,-30],[61,21],[19,24],[32,-12],[21,-82],[24,8],[11,-59],[42,2],[-13,-61],[30,-64],[24,-13],[-1,-94],[7,-80],[-39,-6],[40,-62],[-23,-58],[11,-39],[-8,-68],[51,9],[27,-57],[13,-92],[19,-17],[14,-56],[19,-26],[83,-26],[47,-29],[70,-11],[199,-80],[56,-33],[65,-75],[41,-104],[0,-65],[-15,-181],[8,-51],[46,-102],[34,-57],[78,-166],[33,-100],[85,-169],[56,-85],[34,-33],[105,-49],[124,-68],[113,-51],[197,-103],[60,-16],[213,-109],[98,-59],[126,-57],[163,-114],[44,-12],[177,-23],[187,-11],[224,-71],[139,-91],[78,-20],[48,3],[104,49],[36,31],[102,24],[109,12],[39,17],[28,36],[-2,56],[-62,68],[-60,23],[-49,51],[-55,120],[-3,49],[29,43],[56,17],[82,-5],[69,22],[45,68],[24,73],[-14,35],[-94,57],[-35,35],[20,53],[57,39],[49,21],[84,1],[38,-26],[53,-79],[67,-55],[56,-16],[70,9],[35,-10],[88,-104],[56,-68],[86,-82],[65,-46],[60,-20],[73,24],[21,38],[13,63],[-4,38],[-33,94],[64,157],[30,47],[100,-2],[79,40],[62,69],[71,39],[52,29],[85,81],[51,-13],[38,10],[90,63],[50,57],[107,3],[47,23],[44,40],[67,18],[113,47],[103,58],[68,63],[21,76],[75,46],[78,17],[80,51],[63,76],[77,27],[45,-17],[66,-47],[90,-13],[75,34],[35,35],[73,104],[66,16],[36,-16],[65,-59],[61,-20],[90,9],[39,15],[53,-28],[45,0],[62,34],[59,20],[60,1],[37,-60],[27,-23],[129,-48],[87,-55],[135,-30],[108,-39],[109,-31],[130,-73],[55,-48],[90,-62],[85,-102],[145,-216],[119,-130],[23,-48],[43,-144],[24,-51],[17,-69],[-1,-79],[40,-150],[6,-87],[-74,-74],[-27,-83],[15,-126],[25,-58],[21,-93],[54,-92],[10,-39],[-47,2],[-7,25],[-56,26],[-89,63],[-52,49],[-19,-28],[-26,-39],[-5,-42],[15,-63],[29,-216],[23,-101],[48,-76],[73,-10],[105,10],[140,55],[-29,-45],[-75,-86],[-64,-132],[-48,-122],[-49,-196],[-18,-114],[-10,-144],[-11,-77],[3,-43],[-22,-172],[-10,-154],[-21,-195],[9,-25],[-12,-90],[-46,-276],[-43,-292],[-9,-347],[-31,-4],[-75,-66],[-4,-41],[27,-118],[15,-22],[-20,-94],[-92,-183],[-57,-88],[-91,-127],[-84,-103],[-108,-80],[-99,-53],[-92,-16],[-44,5],[-9,36],[128,-2],[69,42],[3,44],[112,15],[35,32],[118,150],[45,48],[24,54],[41,52],[14,44],[78,122],[-48,-4],[-78,-72],[-63,9],[-43,-67],[-78,-70],[-26,13],[-140,1],[-103,-15],[-62,-23],[-312,-66],[-29,-11],[-257,-52],[-143,-16],[-220,2],[-96,-18],[-214,-22],[-148,-26],[-144,-42],[-52,-32],[-122,-59],[-19,25],[-153,-41],[-212,-107],[-75,-57],[-134,-112],[-150,-156],[-166,-198],[-195,-270],[-4,-21],[-62,-87],[-79,-140],[-52,-45],[-27,-52],[-30,-30],[-47,-112],[-7,-44],[-83,-193],[-118,-259],[-102,-229],[-99,-203],[-74,-130],[-110,-166],[-87,-101],[-64,-87],[-47,-48],[-130,-173],[-61,-101],[-25,-22],[-15,-14],[-88,-131],[-118,-188],[-29,-56],[-54,-63],[-72,-159],[-34,-123],[-19,-29],[-41,11],[-9,-30],[-81,15],[-26,-41],[-15,-68],[-31,-35],[204,-13],[-1,-11],[-114,9],[-168,8],[-25,-56],[-52,-186],[-18,-132],[-4,-86],[4,-197],[19,-110],[19,-78],[40,-85],[57,-38],[30,-34],[-5,-43],[27,-83],[-4,-119],[31,-89],[-55,-40],[-9,-50],[-31,-51],[10,-115],[72,25],[7,-24],[-70,-42],[11,-35],[42,3],[5,-63],[-75,-19],[-8,-89],[3,-58],[-9,-85],[30,-2],[5,73],[110,-7],[-1,-48],[158,-9],[-1,-105],[-30,-29],[-115,6],[-142,-38],[-31,-64],[2,-69],[16,-46],[-5,-41],[28,-129],[36,-68],[10,-54],[24,-39],[24,-133],[12,-32],[-12,-40],[12,-90],[14,-26],[-1,-49],[-28,-17],[-37,-69],[3,-27],[-7,-50],[-74,-94],[-15,-52],[-1,-97],[-32,-57],[17,-85],[-10,-25],[-36,-85],[-23,-13],[-29,-76],[-21,-14],[-50,-197],[-3,-79],[16,-164],[-43,-48],[-45,-26],[-12,-32],[7,-87],[-32,-173],[-31,-27],[-16,-85],[-16,-18],[60,-24],[-31,-32],[-11,-192],[-17,-43],[-6,-61],[25,-87],[-1,-63],[-753,-44],[-400,118],[-156,46],[-637,57],[-560,282],[-124,62],[-291,184],[-278,170],[-67,29],[-55,25],[-102,517],[-126,349],[-36,258],[-20,140],[-76,100],[-80,109],[-416,-373],[-507,-72],[-93,-43],[-158,53],[-14,40],[-193,587],[-171,161],[-180,-318],[-680,77],[-133,15],[-394,-90],[-162,236],[-83,176],[-257,98],[-112,49],[-3,70],[-62,95],[-17,50],[-3,55],[45,39],[-43,48],[8,63],[-38,36]],[[24957,932],[46,169],[-83,37],[33,71],[103,-29],[9,62],[60,12],[-16,112],[71,15],[-11,69],[112,31],[185,60],[-55,110],[10,91],[92,-2],[0,29],[-53,16],[-11,24],[-2,0],[-42,4],[-57,32],[-60,-11],[-38,9],[-73,-8],[-27,28],[41,31],[42,-30],[46,4],[56,34],[-1,29],[-35,34],[-26,44],[-58,60],[-12,83],[-30,28],[-9,63],[-143,-36],[-34,146],[88,19],[-8,62],[-6,52],[-78,-1],[-28,22],[-49,103],[-9,43],[-49,86],[-39,-11],[-20,95],[118,44],[-7,22],[-73,11],[-12,152],[-71,-10],[-9,30],[-54,-21],[-36,6],[-2,71],[29,3],[12,66],[-55,-11],[-19,29],[47,21],[16,25],[0,55],[-52,-36],[-6,27],[50,26],[29,41],[28,104],[-10,28],[-5,14],[87,68],[25,-14],[152,73],[344,87],[-5,46],[-37,13],[33,37],[-44,91],[65,20],[217,66],[-9,43],[37,8],[215,35],[-15,52],[196,35],[42,15],[8,-34],[66,52],[-26,90],[15,73],[-18,59],[-34,75],[-2,71],[-29,27],[-124,113],[-52,65],[-15,130],[-13,53],[-54,129],[52,89],[132,146],[64,77],[-13,11],[-98,51],[59,32],[-45,47],[24,18],[18,131],[9,119],[-26,71],[-12,24],[-5,69],[15,69],[65,32],[-26,68],[52,16],[22,25],[18,48],[-54,31],[-55,89],[9,38],[-67,159],[-3,55],[58,29],[112,34],[106,10],[81,-6],[28,41],[8,55],[-14,27],[-16,42],[-6,62],[-40,-2],[-77,4],[-235,-6],[0,-57],[-42,-4],[-35,58],[-96,-10],[-8,53],[-179,-67],[2,23],[-61,25],[11,29],[36,18],[1,33],[-50,158],[45,16],[14,92],[-11,97],[19,62],[-8,27],[9,82],[-125,1],[4,237],[-42,5],[11,170],[13,73],[22,73],[40,89],[-15,66],[-42,10],[-16,62],[32,-3],[0,46],[-30,30],[-8,94],[-44,81],[-59,10],[-10,306],[21,56],[24,29],[-36,19],[-16,87],[-29,31],[12,64],[-18,49],[22,19],[-12,37],[-68,312],[-31,41],[141,93],[2,35],[62,1],[-65,63],[-39,96],[-86,13],[-28,33],[-81,-14],[-32,14],[-77,-19],[-110,-50],[5,27],[-80,117],[-44,32],[-15,37],[-39,-6],[-31,-19],[-21,64],[-12,99],[-5,55],[-30,-4],[34,206],[-57,1],[-23,92],[-14,15],[-3,61],[-54,50],[-40,102],[-7,76],[-17,40],[7,48],[-9,60],[-45,19],[8,151],[-18,113],[-40,6],[-54,25],[-36,-107],[-25,-44],[10,-48],[-9,-48],[-46,-8],[26,-81],[-4,-101],[-14,-16],[-45,14],[-28,-72],[3,-51],[-66,-14],[-16,-72],[-86,-30],[-73,-29],[-39,-39],[-6,47],[-64,16],[-51,51],[-14,31],[83,129],[11,34],[40,68],[40,7],[62,76],[24,76],[-16,26],[19,64],[47,83],[22,79],[-73,24],[-16,31],[-1,82],[37,55],[-2,34],[47,39],[43,78],[59,32],[18,38],[-77,69],[-57,-34],[-42,-11],[60,138],[-8,69],[18,40],[39,34],[19,66],[70,87],[30,9],[-89,110],[-28,13],[-18,43],[45,65],[22,-3],[67,104],[54,52],[13,71],[-34,15],[-14,39],[-77,8],[-97,45],[18,30],[11,58],[30,51],[62,31],[25,45],[-12,37],[-43,19],[16,34],[-11,46],[-41,20],[9,71],[54,43],[58,-63],[20,55],[-8,54],[18,58],[-8,22],[19,46],[-21,80],[-84,114],[-18,81],[29,-11],[56,13],[-14,82],[51,14],[14,29],[-49,81],[-75,3],[-72,60],[36,44],[43,10],[-27,53],[-67,31],[-40,-27],[-28,31],[-22,101],[7,44],[-19,31],[43,56],[-17,28],[33,32],[37,124],[0,51],[-23,36],[70,84],[2,39],[-26,59],[9,34],[-42,36],[-4,53],[49,42],[11,64],[-15,70],[12,13],[-47,71],[-54,-16],[-2,90],[-21,69],[18,41],[1,47],[79,7],[81,-48],[20,65],[-23,24],[-20,61],[12,14],[-27,50],[9,25],[48,-5],[7,28],[-17,59],[-63,84],[-9,100],[-36,52],[7,106],[-33,91],[10,102],[28,119],[59,18],[86,-10],[24,21],[54,82],[-5,64],[17,140],[-40,81],[-35,33],[-11,61],[25,44],[38,18],[22,37],[25,2],[53,60],[-26,68],[-35,162],[8,73],[-46,97]],[[39805,4520],[-74,-14],[-32,-41],[-61,-20],[-48,-13],[-92,2],[-93,21],[-89,13],[-53,54],[-62,46],[-110,60],[-60,18],[-66,-2],[-121,-31],[-69,-33],[-55,-1],[-110,24],[-108,80],[-69,-11],[-63,-21],[-137,-64],[-44,-2],[-101,19],[-41,4],[-119,-25],[-70,-9],[-92,12],[-79,-22],[-133,-92],[-126,-47],[-68,-38],[-83,-71],[-243,-162],[-32,-25],[-85,-41],[-222,-46],[-1,16],[-88,16],[-101,-17],[-70,-31],[-86,-54],[5,-18],[-118,-25],[-32,0],[-130,-35],[-123,-54],[-127,36],[-186,3],[-109,-23],[-93,-45],[-89,-23],[-163,-51],[5,-21],[-76,-21],[-60,-6],[-51,22],[-110,17],[-38,25],[-112,24],[-49,-8],[-109,-42],[-57,-32],[-166,-54],[-46,-10],[-142,-134],[-154,-88],[-70,-22],[-74,-48],[-186,-87],[-82,-7],[-2,16],[-123,3],[-63,-10],[-124,-55],[-77,-52],[-55,-78],[-52,-96],[13,-13],[-54,-62],[-80,-110],[-25,-56],[-43,-52],[-34,-89],[-61,-79],[-57,-39],[-113,-62],[-66,-53],[-9,14],[-90,-82],[-41,-54],[-94,-57],[-43,-38],[-71,-67],[-63,-98],[-58,-110],[-23,-91],[-23,-59],[-44,-27],[-89,-120],[-33,-80],[17,-24],[-167,-202],[-51,-39],[-59,-29],[-67,-29],[-12,16],[-89,-90],[-26,-44],[-50,-145],[-72,-90],[-122,-75],[-95,-62],[-43,-20],[-86,-23],[-2,14],[-101,4],[-165,-7],[-38,-13],[-92,-66],[-43,-52],[-97,-37],[-81,-47],[-118,-88],[-103,-91],[-60,-25],[-90,-12],[-104,18],[-97,0],[-6,17],[-179,-57],[-94,-66],[-55,-24],[3,-17],[-87,-17],[-166,-52],[-93,-15],[-39,4],[-57,25],[-28,-5],[-97,43],[-66,46],[-97,108],[-86,54],[-112,54],[-14,26],[-74,93],[-25,44],[-88,75],[-34,15],[-135,33],[-148,46],[-40,19],[-92,36],[-167,-60],[-37,1],[-26,-23],[-122,-50],[-86,4],[-64,23],[-99,19],[-79,22],[-35,21],[-119,131],[-61,40],[-30,76],[-27,25],[-40,20],[-150,6],[-72,16],[-49,-3],[-34,-7],[-67,-48],[-1,-65],[-53,1],[-137,-42],[-116,-41],[-86,-8],[-46,8],[-111,52],[-70,6],[-82,-19],[-58,-29],[-151,-119],[-114,-67],[-103,-17],[-79,26],[-89,51],[-122,100],[-149,166]],[[24957,932],[-94,93],[-99,74],[-70,33],[-123,46],[-108,32],[-62,0],[-199,46],[-66,22],[2,21],[-85,-30],[-175,-110],[-120,-64],[-9,23],[-162,-50],[-57,-29],[-59,-73],[-6,-20],[-66,-50],[-20,-34],[13,-27],[-67,-44],[-86,-73],[-34,-20],[-42,-1],[-134,30],[-148,-24],[-180,-46],[-26,-12],[-95,-11],[-112,-41],[-67,-2],[-64,-13],[-53,-14],[-75,3],[-83,26],[-74,46],[-125,59],[-62,20],[-149,23],[-82,78],[-14,36],[-80,50],[-146,59],[-58,17],[-176,93],[-73,25],[-95,24],[-185,0],[-92,28],[-209,43],[-98,37],[-44,31],[-99,46],[6,15],[-74,34],[-48,37],[-43,2],[-121,36],[-94,54],[-87,137],[-119,4],[-83,17],[-77,5],[-33,-13],[-51,3],[-125,-33],[-124,-47],[-133,-24],[-98,31],[-44,22],[-72,-2],[-74,33],[-32,36],[-107,64],[-112,99],[10,14],[-59,57],[-44,25],[-54,5],[-98,31],[-93,20],[-95,56],[-81,37],[-103,20],[-140,-21],[-97,-26],[-121,14],[-90,8],[-87,-1],[-120,-16],[-182,-12],[-51,-20],[-70,-47],[-43,-19],[-57,3],[-91,-40],[-55,-34],[-74,-33],[-85,-39],[-211,-118],[-62,-28],[-266,-49],[-29,-16],[-104,-14],[-79,4],[-79,66],[-122,17],[-125,35],[-6,-20],[-53,11],[-95,42],[-32,0],[-25,50],[-82,42],[-119,13],[-103,34],[-122,56],[-39,29],[-77,108],[-59,119],[-4,80],[-18,45],[-3,79],[54,156],[81,175],[9,80],[-19,8],[46,124],[28,164],[31,138],[74,91],[102,24],[109,60],[232,65],[6,-25],[44,6],[145,42],[34,21],[37,46],[-15,18],[52,64],[42,68],[42,82],[44,118],[2,50],[-8,40],[-41,103],[-74,87],[-63,39],[-123,37],[-157,6],[-159,11],[-59,21],[-151,112],[-106,115],[-53,49],[-130,84],[-42,35],[-156,66],[-97,82],[-79,79],[-186,231],[-75,28],[-103,18],[-57,1],[-77,12],[-49,31],[-71,79],[-9,49],[11,95],[61,161],[4,126],[-36,115],[-40,49],[-153,80],[-45,11],[-112,-5],[-68,20],[-64,31],[-90,41],[-82,17],[-46,54],[-44,99],[-103,105],[-33,43],[-41,170],[-47,141],[-27,56],[-16,94],[-11,192],[16,42],[-117,138],[-53,36],[-43,72],[-15,70],[-22,56],[-10,98],[28,66],[27,20],[47,8],[128,-27],[116,-52],[41,8],[137,81],[39,72],[30,137],[0,137],[14,112],[55,93],[55,51],[104,26],[80,2],[68,-22],[46,-34],[46,-14],[43,-50],[25,-27],[168,-144],[43,-23],[41,-4],[70,25],[109,68],[161,85],[23,30],[4,65],[-14,70],[-28,62],[-126,178],[-142,177],[-96,27],[-54,33],[-32,78],[-51,15],[-161,-39],[-74,-6],[-49,12],[-96,61],[-118,88],[-66,43],[-54,104],[-85,110],[-36,23],[-18,37],[-61,75],[-54,51],[-31,70],[-78,72],[-92,105],[-58,34],[-14,6],[-15,6],[-179,-42],[-65,-35],[-63,-88],[-65,-104],[-50,-47],[-33,-27],[-90,-36],[-61,3],[-102,35],[-43,-11],[-73,-90],[-59,-58],[-28,-49],[-6,-78],[-19,-56],[-140,-113],[-22,-153],[-34,-108],[-50,-79],[-83,-147],[-62,-84],[-91,-222],[-33,-100],[-34,-76],[-41,-61],[-30,-104],[7,-48],[-22,-70],[-24,-35],[-57,-45],[-157,-29],[-47,2],[-51,21],[-27,26],[-191,156],[-77,85],[-16,67],[3,64],[-33,78],[-66,64],[-84,65],[-36,54],[-41,123],[-15,87],[7,145],[-11,42],[-49,48],[-61,69],[-38,192],[-52,46],[-104,-5],[-116,18],[-58,28],[-116,76],[-33,7],[-93,-24],[-54,5],[-117,43],[-50,5],[-96,31],[-71,-27],[-76,-8],[-37,14],[-75,98],[-30,10],[-115,-26],[-154,-52],[-86,-16],[-57,3],[-37,18],[-90,70],[-42,14],[-76,-3],[-131,-41],[-65,-10],[-48,18],[-72,68],[-48,155],[-4,119],[25,122],[-35,162],[-22,58],[-78,156],[-21,25],[-134,77],[-137,46],[-51,7],[-153,-16],[-252,51],[-77,-15],[-62,2],[-60,-18],[-57,6],[-88,35],[-40,44],[-15,51],[-25,146],[-49,91],[-63,42],[-41,15],[-10,49],[44,18],[-58,81],[24,49],[-3,54],[53,131],[23,19],[70,-12],[25,39],[50,-27],[57,0],[52,53],[63,-12],[26,-27],[24,24],[31,-12],[23,35],[53,0],[54,-54],[20,24],[68,7],[31,-23],[20,29],[28,-3],[76,44],[22,34],[125,22],[156,58],[-16,140],[5,17],[-42,81],[11,73],[-35,59],[-120,80],[-33,-14],[-74,57],[-96,46],[-116,80],[-135,33],[-42,-15],[-178,160],[45,74],[-55,27],[9,24],[-103,50],[-31,33],[-129,165],[78,69],[96,-10],[52,29],[28,40],[41,15],[80,-9],[169,45],[-34,104],[-17,24],[20,56],[26,18],[28,83],[75,95],[8,28],[48,45],[-12,37],[-33,30],[-31,52],[27,63],[22,85],[52,37],[46,-7],[42,31],[138,88],[9,84],[-10,32],[-21,75],[-40,84],[-133,42],[-55,159],[-24,15],[-121,50],[-108,37],[-47,93],[-108,74],[-4,29],[-44,39],[-44,-93],[-146,65],[-54,-36],[-93,87],[-25,36],[-38,-12],[-71,25],[-85,17],[-73,27],[-97,-114],[-103,89],[-8,17],[-184,104],[-27,-22],[-91,131],[34,88],[-68,62],[-31,46],[-10,59],[-55,165],[21,35],[0,41],[-46,39],[-53,-50],[-25,49],[-68,-83],[26,-31],[-55,-68],[-94,-1],[-47,-23],[-56,-12],[-75,-43],[-88,195],[-57,-23],[-56,6],[13,143],[-192,-52],[-51,-9],[-24,-4],[-37,148],[-59,4],[-69,77],[-33,62],[-70,59],[-51,26],[-54,71],[-14,96],[-97,11],[-7,49],[31,4],[-23,83],[-42,46],[-21,89],[-113,-3],[-144,80],[-59,53],[6,31],[55,34],[-7,65],[39,-2],[-20,36],[7,33],[-47,17],[4,36],[-29,48],[-36,10],[-152,121],[-352,0],[0,72],[34,22],[-47,85],[202,130],[16,10],[119,162],[27,17],[-75,129],[20,14],[-67,124],[12,20],[-102,173],[-133,-42],[-36,266],[78,89],[53,204],[91,105],[-27,130],[17,90],[-39,45],[35,114],[-7,19],[8,319],[32,95],[44,7],[9,25],[32,205],[-225,97],[-54,-280],[-235,12],[-84,-35],[-27,-20],[-32,14],[-41,-5],[-19,88],[-22,-7],[-13,58],[22,6],[-23,101],[-52,169],[-106,-28],[-32,124],[-37,32],[42,115],[13,41],[-276,310],[-73,-20],[-25,89],[-73,-20],[-40,130],[24,8],[-54,224],[-85,-24],[-44,-13],[17,-53],[-192,-70],[-79,165],[-107,381],[-201,149],[-239,-43],[-325,306],[53,56],[-97,270],[-4,27],[19,71],[-79,101],[-114,121],[-40,129],[-164,104],[-49,96],[61,31],[-20,33],[-50,23],[7,67],[34,8],[6,43],[24,13],[43,74],[78,93],[70,37],[19,-56],[245,174],[73,-149],[51,43],[21,1],[74,-47],[18,42],[112,-79],[52,-29],[109,-30],[78,9],[78,85],[22,36],[93,114],[18,78],[-26,25],[32,31],[-5,37],[27,14],[127,-78],[101,-15],[45,-23],[24,-30],[237,-209],[90,-51],[29,-39],[61,-77],[43,-39],[46,13],[38,61],[3,66],[24,54],[79,19],[68,-52],[32,1],[32,38],[22,82],[58,24],[49,41],[48,192],[51,26],[13,24],[-46,30],[16,76],[-6,21],[196,-26],[-74,411],[152,226],[77,-26],[478,128],[98,-143],[180,-86],[16,129],[123,27],[33,-128],[49,-23],[166,-24],[146,33],[50,29],[67,-166],[131,-28],[35,-18],[30,99],[49,-16],[61,54],[22,38],[49,2],[34,137],[37,211],[40,-7],[129,34],[13,-49],[22,-15],[12,8],[93,-3],[32,43],[28,11],[-42,127],[25,45],[-8,108],[81,32],[28,42],[23,36],[-11,195],[-6,9],[26,134],[30,155],[57,-13],[16,83],[35,22],[81,-29],[75,-5],[129,-27],[44,-32],[74,32],[-38,60],[78,166],[49,75],[8,80],[23,10],[-120,227],[-69,10],[-55,-7],[-9,62],[-71,165],[90,295],[-11,51],[35,38],[53,-6],[22,70],[22,11],[42,69],[-8,28],[62,95],[36,70],[-78,32],[-33,39],[32,72],[1,26],[41,140],[60,95],[29,30],[27,-22],[75,21],[30,-10],[71,67],[75,-44],[16,-41],[157,-55],[14,30],[13,81],[14,71],[29,35],[60,14],[53,30]]],"transform":{"scale":[0.00017606525692558052,0.00011223985374330027],"translate":[20.263081077403246,43.61901922041906]},"objects":{"ro_admin_macroregion_simplified_polygon":{"type":"GeometryCollection","geometries":[{"arcs":[[0,1,2,3]],"type":"Polygon","properties":{"id":1,"name":"Macroregiunea 1","version":"2025-03-26"}},{"arcs":[[4,-3,5]],"type":"Polygon","properties":{"id":2,"name":"Macroregiunea 2","version":"2025-03-26"}},{"arcs":[[6,-4,-5,7]],"type":"Polygon","properties":{"id":3,"name":"Macroregiunea 3","version":"2025-03-26"}},{"arcs":[[-1,-7,8]],"type":"Polygon","properties":{"id":4,"name":"Macroregiunea 4","version":"2025-03-26"}}]}}}