{"type":"Topology","arcs":[[[36019,22040],[-13,134],[-30,44],[-2,43],[-42,35],[14,79],[18,21],[-59,46],[-69,74],[-7,114],[-83,-24],[-55,16],[-44,36],[-25,17],[-26,87],[58,54],[11,33],[37,9],[22,39],[-10,44],[-24,10],[10,56],[-59,7],[-95,-47],[-25,9],[-68,-36],[28,137],[-18,27],[16,53],[-22,49],[-54,76],[-20,98],[13,90],[48,46],[-20,131],[-23,27],[-53,117],[-88,71],[-146,62],[-58,11],[-67,-5],[-28,33],[11,76],[-14,55],[-27,20],[-1,96],[54,25],[35,62],[34,6],[-19,51],[6,32],[38,26],[14,128],[16,74],[26,18],[27,98],[-26,30],[-34,6],[-68,61],[-81,-34],[-72,-10],[-15,-38],[-39,-9],[-22,-87],[-42,-79],[-94,-43],[-43,-9],[-59,13],[-79,-15],[-84,52],[-40,-12],[-31,59],[-9,68],[33,99],[56,66],[13,70],[-19,64],[20,67],[-20,33],[-4,72],[-18,46],[-61,26],[-16,23],[-116,58],[-47,-1],[-53,28],[-56,8],[-85,-19],[-136,12],[-32,26],[31,71],[-87,48],[-80,2],[-18,-61],[-30,44],[-25,-6],[-6,-46],[-56,30],[-38,-56],[-48,4],[29,62],[-18,59],[38,27],[-9,39],[-42,49],[-45,58],[109,53],[-8,74],[20,51],[44,13],[-1,42],[-21,42],[29,32],[-1,44],[-57,37],[66,93],[94,-6],[77,9],[64,18],[34,-61],[61,-27],[41,210],[9,45],[-50,90],[-5,30],[-72,0],[-24,30],[-53,27],[-77,116],[32,52],[-8,48],[-40,31],[-6,77],[14,26],[-44,63],[-25,102],[-56,14],[-13,33],[-37,27],[-31,47],[-7,66],[-39,64],[14,62],[39,19],[46,94],[70,-9],[-41,95],[-27,34],[-7,103],[-37,33],[-5,28],[-42,69],[-65,56],[-37,85],[3,71],[-79,16],[-39,-35],[-41,34],[-94,31],[-86,-19],[-51,5],[-25,29],[-74,-44],[-11,-55],[-32,-40],[13,-50],[54,-70],[15,-47],[31,-24],[-2,-31],[33,-75],[-41,-62],[-76,-11],[-66,25],[-57,-13],[-32,53],[-9,44],[-36,36],[-35,63],[-36,12],[-27,41],[-11,54],[-39,28],[-92,113],[-51,78],[-53,120],[26,75],[44,84],[-22,37],[7,100],[-9,79],[11,35],[-28,29],[5,41],[30,34],[14,86],[1,65],[-46,65],[35,47],[-71,51],[-56,17],[-30,111],[16,81],[66,-6],[63,68],[-70,70],[-62,26],[-16,-6],[4,-64],[21,-17],[-25,-67],[-43,3],[-56,61],[2,44],[70,65],[38,94],[-7,17],[5,29],[-33,23],[-49,84],[-9,38],[31,30],[112,179],[34,20],[33,51],[-3,99],[16,26],[56,-17],[58,-33],[94,0],[16,-28],[80,3],[36,24],[-45,8],[-13,68],[-56,104],[-1,79],[-22,95],[-57,92],[-50,38],[-83,-105],[-25,23],[-49,103],[-16,69],[-4,91],[-53,106],[-43,36],[-24,50],[23,63],[-22,99],[-38,43],[-85,66],[-34,66],[-18,141],[-36,38],[-111,29],[-27,38],[-29,-16],[-79,46],[-54,11],[-27,33],[-72,-8],[-18,27],[-55,-41],[-69,55],[-59,16],[-53,-11],[-11,-41],[-36,-53],[-67,-56],[-69,21],[-90,46],[-76,-10],[-52,-21],[-73,9],[-46,41],[-4,95],[-23,26],[-3,48],[20,48],[-32,43],[-47,34],[-45,-20],[-62,55],[-22,53],[-42,17],[-39,38],[-42,14],[-13,32],[-85,52],[-65,71],[-29,59],[-89,105],[14,85],[-15,29],[-68,-9],[-56,-40],[-26,22],[-84,-9],[-68,-41],[-84,40],[-40,-46],[-118,-42],[-42,-37],[-48,-11],[-55,8],[-74,-89],[10,-69],[-23,-44],[-28,-94],[57,-114],[-5,-45],[-98,-110],[-90,-1],[-73,-52],[-28,1],[-33,-10],[-44,13],[-48,94],[-84,32],[-63,13],[-53,57],[-50,74],[-52,24],[-53,-8],[-42,-66],[-37,-31],[-37,-52],[-40,32],[-50,12],[-40,34],[-75,-21],[-90,10],[-61,53],[-26,-2],[-46,75],[-45,19]],[[27991,32038],[15,59],[-48,66],[52,133],[-11,96],[-19,82],[-28,32],[-3,47],[17,55],[-86,154],[88,168],[90,106],[28,114],[-59,21],[-106,84],[-75,117],[-61,33],[31,56],[70,66],[14,33],[62,6],[22,49],[83,11],[13,37],[-21,44],[5,47],[-16,29],[-1,62],[20,57],[-24,7],[-58,64],[-10,41],[22,117],[28,24],[-38,93],[-70,-16],[-62,27],[-31,41],[6,60],[-52,48],[-44,71],[-72,50],[-20,28],[-43,0],[-28,45],[-33,0],[-16,54],[21,5],[47,-41],[29,1],[73,75],[15,46],[70,21],[34,-23],[103,-136],[48,-16],[4,38],[-47,31],[8,63],[54,22],[4,32],[65,-1],[26,14],[64,75],[-42,66],[-67,-32],[-40,39],[-19,73],[-23,37],[-53,32],[-10,98],[40,-2],[104,59],[16,53],[45,30],[78,69],[-2,58],[9,50],[-19,37],[-61,57],[-87,38],[-32,60],[-29,102],[4,40],[-27,73],[-44,-6],[-47,16],[-102,59],[-65,7],[-40,64],[-39,12],[-23,77],[-42,15],[-47,48],[-83,39],[-11,60],[-2,107],[33,9],[59,-23],[58,61],[37,-1],[15,45],[30,9],[67,62],[84,8],[49,37],[119,32],[19,59],[-5,60],[-29,42],[-37,2],[-34,44],[-94,20],[-29,74],[-56,20],[-40,57],[-27,10],[-82,98],[-43,40],[-88,59],[-44,1],[10,55],[-34,49],[-5,109]],[[27313,37435],[212,3],[77,-39],[60,83],[57,-30],[56,-1],[18,-28],[63,-22],[14,55],[44,75],[25,58],[50,-50],[80,45],[34,-3],[36,34],[54,4],[30,32],[73,18],[3,117],[98,117],[51,48],[42,57],[26,-26],[72,14],[30,53],[-4,77],[-19,36],[62,47],[19,67],[-5,35],[97,81],[34,54],[-3,27],[-3,59],[31,38],[89,45],[2,101],[15,28],[-14,60],[41,118],[49,27],[41,-20],[40,17],[38,-28],[24,17],[43,-13],[240,200],[87,-7],[96,7],[25,15],[311,50],[323,56],[268,47],[464,45],[67,6],[193,94],[179,6],[175,-49],[70,13],[110,-42],[21,32],[74,12],[35,-37],[206,-20],[119,53],[97,57],[41,24],[42,89],[67,30],[139,28],[109,-65],[69,-17],[52,18],[42,15],[39,114],[55,0],[96,-14],[67,-46],[136,41],[320,73],[180,43],[68,-20],[152,-64],[13,-5],[94,32],[55,55],[63,-33],[39,16],[157,44],[99,43],[65,114],[52,190],[24,199],[37,35],[78,62],[169,119],[35,19],[50,88],[14,82],[27,51],[14,113],[14,48],[63,139],[52,70],[56,65],[66,40],[37,59],[-3,67],[-34,86],[39,73],[83,-9],[17,75],[34,-60],[24,8],[49,54],[5,37],[40,27],[48,-37],[-40,-54],[45,-16],[37,23],[45,-7],[89,73],[25,43],[27,-13],[76,-53],[1,39],[-36,14],[18,41],[69,-7],[52,20],[27,36],[-23,34],[63,23],[28,37],[30,-39],[47,-2],[52,24],[75,-32],[64,-32],[32,22],[37,-35],[54,42],[62,18],[-12,52],[10,26],[118,-51],[19,37],[-24,59],[13,75],[40,52],[68,17],[49,-67],[71,14],[62,10],[-36,72],[35,21],[48,-35],[11,46],[-2,69],[34,16],[46,-56],[8,-30],[42,18],[48,90],[27,-21],[2,-41],[-19,-41],[29,-57],[94,26],[47,44],[22,80],[51,2],[23,-95],[75,-60],[47,1],[15,34],[-33,60],[33,13],[58,-32],[3,-17],[-51,-59],[40,-12],[75,29],[19,-6],[60,6],[86,-47],[23,15],[17,50],[60,1],[45,38],[54,-51],[7,-28],[56,-15],[17,-83],[-3,-44],[28,-38],[49,22],[22,35],[34,16],[24,-28],[28,-117],[74,-65],[63,-78],[24,-15],[90,12],[29,-27],[-38,-44],[-48,-6],[-4,-47],[47,-60],[44,-19],[59,12],[12,22],[-46,122],[10,18],[90,8],[70,-31],[45,-83],[-25,-72],[-74,-76],[16,-69],[59,-29],[138,14],[93,-45],[36,-65],[-10,-26],[-51,-29],[-78,32],[-51,44],[-46,-24],[-1,-46],[31,-85],[45,-34],[22,-16],[80,-2],[40,-15],[51,-46],[41,1],[73,127],[25,17],[46,-21],[-35,-99],[40,-7],[29,46],[28,-13],[-34,-118],[38,-77],[-19,-81],[-59,-49],[6,-49],[78,-46],[9,-15],[2,-75],[16,-32],[73,-46],[99,-85],[35,-45],[13,-41],[-9,-66],[16,-31],[42,-13],[62,9],[35,-46],[-97,-64],[-15,-109],[14,-27],[40,-11],[96,85],[48,11],[41,-42],[-56,-63],[-24,-42],[39,-62],[68,-17],[181,32],[-41,-74],[-35,-138],[-69,-42],[74,-55],[67,-50],[74,-78],[-159,-233],[286,-177],[53,-478],[122,-98],[73,-8],[31,-25],[-12,-50],[-77,-42],[-32,51],[-25,11],[-40,-55],[-7,-42],[35,-57],[117,13],[2,-37],[-60,-54],[1,-58],[103,-47],[9,-72],[22,-19],[2,-56],[63,22],[16,-118],[-19,-38],[16,-33],[68,40],[37,-64],[-33,-62],[23,-19],[77,31],[-9,-53],[-54,-15],[-31,-80],[31,-53],[43,-8],[-5,-54],[-49,7],[-26,37],[-72,-4],[-3,45],[-40,-18],[-27,-76],[-31,-25],[55,-50],[38,-11],[17,-41],[-5,-40],[17,-37],[69,-2],[-31,-71],[-23,-20],[63,-64],[72,-25],[0,-59],[-15,-47],[4,-53],[58,0],[47,-76],[14,-53],[-4,-42],[48,-45],[50,-87],[49,-34],[111,-41],[23,-25],[6,-52],[42,-116],[55,-58],[64,-35],[78,-60],[37,-3],[80,14],[23,-32],[-70,-84],[29,-77],[66,-9],[-52,-61],[7,-20],[66,-19],[-27,-69],[44,-24],[28,-46],[50,13],[18,-32],[-57,-15],[36,-95],[42,24],[-24,-78],[-7,-71],[20,-33],[56,-39],[2,-57],[26,-31],[25,-48],[89,34],[-1,-43],[23,-42],[51,-11],[17,50],[43,66],[16,-26],[-26,-38],[-3,-66],[30,-20],[23,70],[69,-38],[17,40],[-28,20],[29,41],[27,-16],[10,-85],[19,-32],[55,-32],[13,-49],[41,-25],[29,24],[22,-26],[5,-45],[-31,-81],[-66,-14],[16,-92],[-45,-38],[18,-62],[57,-34],[24,27],[28,-88],[-2,-39],[24,-34],[37,3],[-10,-75],[-72,-38],[-13,-81],[9,-88],[25,-83],[46,4],[45,-32],[43,37],[25,-19],[-18,-102],[-20,-65],[26,-18],[41,25],[-8,-68],[18,-32],[40,0],[-101,-84],[-14,28],[-46,-1],[-15,-47],[51,8],[-4,-51],[26,-42],[29,12],[-15,45],[24,39],[30,1],[10,-50],[34,-30],[35,59],[27,-63],[6,-81],[59,-3],[-28,-44],[6,-23],[85,-18],[-7,64],[84,3],[30,-35],[12,-29],[40,6],[48,-40],[-8,-87],[31,-14],[24,55],[76,-24],[-15,85],[33,13],[68,-61],[39,19],[33,-28],[32,-68],[9,-88],[50,13],[-23,-108],[77,-52],[-4,-30],[-49,20],[-36,-10],[12,-50],[45,32],[32,-49],[-32,-31],[-41,-7],[6,-34],[20,-28],[56,-7],[-28,-44],[14,-29],[97,15],[12,-26],[-30,-68],[62,-2],[33,-28],[-4,-31],[-35,-42],[64,-30],[-18,-40],[-8,-95],[12,-24],[88,-16],[-26,-55],[-16,-69],[7,-40],[77,-59],[-41,-44],[-11,-50],[-66,13],[-36,-38],[20,-27],[46,23],[25,-44],[-13,-28],[-79,30],[1,-36],[116,-28],[73,3],[96,-46],[56,23],[53,-70],[-20,-44],[-24,-1],[-12,56],[-20,10],[-28,-47],[-45,-33],[39,-51],[135,-27],[-11,-44],[40,-42],[22,45],[58,-3],[-3,-43],[57,-42],[-22,-69],[54,-7],[31,-44],[12,-99],[49,22],[63,-89],[39,6],[51,-52],[32,1],[116,-37],[-75,-69],[83,-72],[64,19],[40,-19],[9,-46],[54,-29],[19,34],[35,-39],[-10,-35],[122,-60],[52,12],[26,52],[58,-24],[10,-59],[48,29],[30,-81],[-65,32],[-34,-17],[-25,-59],[44,8],[17,-56],[38,-36],[70,-35],[78,-54],[44,-19],[-26,-41],[39,-4],[63,-50],[2,-27],[-56,-29],[0,-63],[-46,-27],[45,-64],[41,5],[-16,-52],[47,-21],[-10,-66],[-72,-68],[94,-8],[-9,-57],[81,-43],[-61,-118],[-23,11],[-66,-27],[-22,-34],[14,-62],[49,-9],[20,-33],[30,33],[27,-57],[41,14],[-11,-83],[34,-28],[-51,-50],[-44,1],[-17,-36],[70,0],[-23,-34],[44,-49],[49,-32],[-46,-91],[-3,-87],[7,-86],[-11,-54],[23,-32],[44,30],[-12,-75],[41,-10],[-16,-36],[33,-54],[65,-6],[26,-76],[33,-16],[30,-65],[59,-17],[37,-42],[-86,-3],[33,-71],[29,-16],[38,9],[0,-50],[-32,-124],[18,-27],[34,-108],[19,-18],[42,20],[17,-39],[-51,-53],[49,-51],[81,-68],[8,-47],[-30,-82],[56,-36],[-12,-60],[49,18],[20,-86],[-4,-43],[34,-21],[10,43],[49,-95],[-25,-5],[14,-104],[-2,-42],[31,-93],[6,-60],[-29,-41],[51,-17],[21,-61],[-14,-50],[20,-31],[-45,-40],[23,-27],[-38,-32],[-22,-43],[16,-44],[-22,-41],[-2,-68],[-53,6],[-29,-14],[14,-75],[15,-22],[-12,-47],[42,0],[0,-55],[15,-44],[-56,5],[-29,-68],[10,-18],[-37,-41],[81,-79],[-10,-64],[-51,-50],[18,-57],[-47,6],[-33,-57],[33,-26],[-17,-40],[62,31],[4,-60],[44,-5],[-15,-52],[21,-40],[-35,-54],[55,-29],[35,35],[28,-29],[-7,-66],[43,-16],[31,-71],[-49,-22],[-52,-43],[11,-46],[87,-1],[23,-89],[-36,-46],[22,-50],[-50,-61],[-9,-47],[-46,18],[-48,-6],[-11,-74],[48,-18],[-22,-27],[-38,3],[-11,-48],[72,16],[26,-41],[-46,-51],[-76,31],[8,-48],[-33,-51],[-45,-43],[-13,-49],[-42,16],[-16,-43],[29,-117],[-72,3],[9,-72],[-49,37],[25,-77],[56,8],[-12,-52],[8,-46],[-49,21],[-22,-45],[41,-18],[-29,-39],[45,-22],[72,-54],[-20,-53],[-53,-82],[-43,-4],[-52,-45],[42,-64],[-73,-3],[-20,-69],[-29,36],[-44,-3],[-18,51],[-28,-13],[23,-73],[-5,-34],[-49,6],[22,61],[-29,4],[-30,-35],[-6,-123],[-16,-55],[-42,-10],[34,-54],[57,11],[24,-51],[-48,-34],[-21,29],[-68,-86],[-31,-21],[-19,61],[-27,-44],[13,-68],[-6,-57],[-25,-52],[32,-31],[-24,-34],[38,-39],[-25,-34],[38,-31],[-1,68],[22,14],[34,-43],[-16,-74],[-33,-34],[34,-29],[68,23],[38,-35],[-4,-65],[-58,15],[6,-34],[69,-22],[-75,-52],[44,-32],[25,-57],[-37,-16],[-23,-71],[-28,9],[-24,-71],[33,-31],[-25,-61],[19,-55],[33,-18],[-27,-38],[-26,8],[-3,-133],[-30,9],[-18,-46]],[[45792,22666],[-1,45],[-68,39],[-165,6],[-105,-46],[-97,-55],[-109,-22],[-80,9],[10,47],[-7,47],[-43,5],[-104,-49],[-20,60],[-6,58],[-38,-18],[-29,88],[-21,94],[-146,-57],[-21,55],[-57,103],[-53,-35],[-38,47],[-147,-77],[-79,2],[-16,143],[-69,16],[-6,-49],[-55,1],[-5,-259],[-24,-34],[-68,14],[45,-106],[-50,-38],[-43,68],[-32,-48],[-48,-17],[42,-62],[-162,-84],[-1,103],[-8,50],[-42,-17],[-90,46],[-6,114],[-112,-8],[-8,24],[-90,-1],[-90,-5],[-6,85],[-98,-58],[-101,84],[-25,-78],[-23,2],[-100,66],[-19,-95],[-78,77],[-42,-37],[-49,21],[-46,-3],[-17,-52],[-56,79],[34,48],[-50,26],[-74,-2],[-7,-24],[27,-39],[-10,-43],[36,-15],[30,-105],[-25,-34],[22,-36],[-40,-29],[107,-183],[-8,-6],[35,-127],[-140,-36],[18,-31],[142,36],[32,-21],[45,-88],[-162,-50],[1,-110],[28,-72],[-52,-75],[50,-76],[-103,-107],[-141,-43],[-3,35],[-65,38],[8,10],[-64,75],[-82,218],[-69,110],[96,99],[-86,166],[21,38],[85,46],[-38,126],[-32,71],[-64,95],[-46,68],[-8,51],[-5,33],[-101,18],[10,71],[36,56],[0,30],[-77,41],[-20,-56],[-58,-34],[-41,3],[-26,46],[-26,88],[19,6],[-32,104],[-60,7],[-23,30],[-76,15],[-6,35],[-87,5],[-99,-5],[-12,-40],[-40,5],[-18,-112],[30,-115],[-43,-32],[4,-38],[-65,-9],[-77,-33],[-17,39],[21,39],[-2,69],[-71,8],[-25,-12],[-21,100],[-48,42],[-46,-2],[6,55],[24,19],[-8,99],[-50,24],[-83,-11],[-100,-26],[-87,-8],[7,-58],[33,-99],[-112,-22],[-29,-27],[-37,4],[-9,33],[-14,70],[-54,-25],[-26,41],[-119,-108],[-18,55],[-46,8],[3,-59],[-18,-37],[-22,-33],[-33,70],[-30,12],[0,-33],[-44,-50],[26,-23],[-117,-96],[-112,-85],[-42,-21],[21,-88],[75,-33],[-40,-124],[20,-13],[-28,-19],[-52,-118],[-67,45],[-106,20],[26,-53],[43,-4],[3,-148],[-110,42],[-43,-47],[-32,-6],[-71,48],[-53,23],[-42,2],[-19,25],[-61,8],[-14,28],[-68,34],[-33,-3],[-128,67],[-58,-5],[-14,-12],[-96,-22],[-57,-40],[-15,-46],[23,-109],[-27,-58],[-48,-29],[-15,-98],[-28,-22],[-54,9],[-31,38],[-51,19],[-80,62],[-23,-11],[-31,31],[-53,10],[-41,29],[-48,-43],[-79,-15],[-22,-67],[-88,-8],[-26,16],[-112,-55],[-24,41],[-2,45],[-76,34],[1,23],[-44,108],[-18,-2],[-32,-41],[-27,8],[-28,-28],[-27,22],[-27,-16],[-48,14],[-32,-14],[-38,72],[-83,-57],[-85,43],[-126,-92],[-5,-38],[-66,-23],[-57,24],[-50,-5],[-38,-44],[-38,-33],[3,-54],[-33,-29],[-2,-38],[-90,-39],[-19,-36],[-44,-41],[-36,25],[-65,-60],[-22,-3],[-7,-80],[-33,-92],[-43,-44],[-76,32],[-42,4],[-13,25],[-58,-2],[-26,42],[-116,-9],[-60,57],[-23,52],[-57,58],[-69,-5],[-14,-42],[-40,-25],[-85,-20],[-56,30],[-37,4]],[[40866,4621],[19,15],[122,92],[58,21],[57,1],[74,-11],[104,-74],[80,-22],[102,-4],[92,33],[31,-5],[55,-8],[103,-37],[108,-23],[57,10],[61,43],[70,73],[52,56],[112,68],[26,26],[58,89],[58,55],[95,51],[41,38],[68,44],[84,55],[134,69],[84,14],[83,50],[44,7],[79,-10],[90,-24],[105,-11],[95,-43],[82,-3],[109,30],[50,54],[92,97],[124,151],[42,30],[87,39],[87,25],[76,34],[56,2],[81,-18],[61,4],[70,22],[60,30],[33,0],[104,-31],[85,1],[77,27],[80,59],[103,155],[67,160],[104,117],[30,65],[57,94],[13,99],[20,67],[13,43],[12,105],[16,51],[39,84],[46,67],[24,54],[91,104],[62,72],[8,67],[30,43],[73,41],[95,74],[34,78],[-9,51],[-63,122],[-6,52],[-14,112],[-28,124],[-57,83],[-95,55],[-65,58],[-30,94],[-9,57],[-67,196],[-32,62],[-73,96],[-16,96],[-1,83],[14,39],[57,99],[39,70],[4,52],[5,38],[-14,74],[-45,82],[-48,64],[-67,40],[-67,81],[-54,46],[-91,93],[-53,90],[-110,-14],[-32,5],[-40,30],[-32,66],[-62,70],[-118,56],[-64,57],[-33,72],[-18,81],[3,76],[21,152],[32,108],[-11,57],[-25,39],[-32,16],[-71,2],[-151,32],[-47,65],[-15,67],[1,57],[31,89],[1,95],[-120,-2],[-32,-46],[-69,36],[-33,-32],[-42,-93],[-146,24],[-130,-54],[-17,-72],[72,-51],[35,2],[3,-84],[-125,-12],[-14,-100],[-416,31],[-4,50],[-163,13],[-172,7],[4,50],[-298,0],[-43,8],[-25,38],[-43,3],[31,-135],[-138,3],[1,52],[-113,3],[-35,-47],[-240,216],[-169,-236],[-95,94],[-56,-79],[-105,116],[11,20],[-144,118],[-29,-40],[-155,-214],[-122,101],[-112,-205],[-69,-124],[-79,68],[-77,106],[-54,59],[12,67],[-117,41],[-3,-10],[-150,11],[-126,14],[-44,-190],[120,-50],[-13,-48],[122,-53],[-48,-146],[-117,45],[-10,-35],[-117,48],[-19,-56],[-211,85],[57,209],[19,129],[-319,136],[-66,65],[-95,74],[-120,112],[-73,-97],[-113,-193],[-17,-39],[-328,158],[-50,-5],[-77,53],[6,13],[-104,72],[-73,-129],[-113,80],[-45,-61],[-49,-96],[-79,59],[-39,-80],[-71,55],[-125,125],[-337,-54],[-28,94],[-191,-80],[-14,-18],[-46,22],[-67,37],[-85,71],[-20,-34],[-61,-52],[-70,179],[-3,70],[-75,146],[26,20],[-53,79],[43,40],[-38,44],[-51,83],[-47,-35],[-141,243],[-41,57],[-32,4],[-70,-51],[0,58],[-33,192],[6,15],[125,51],[154,55],[0,14],[119,32],[-41,74],[-79,-27],[-12,96],[-93,177],[-2,29],[-35,48],[-46,-21],[-73,53],[-29,108],[-60,-19],[-54,1],[21,-81],[-68,-41],[-33,66],[-25,-12],[-45,123],[17,11],[-32,68],[-28,59],[3,48],[3,74],[-18,0],[-14,86],[-55,120],[-100,29],[-15,22],[32,32],[19,78],[20,37],[-20,61],[16,10],[-16,78],[8,35],[-23,29],[0,100],[41,25],[-1,66],[71,28],[6,19],[-44,157],[-9,79],[11,84],[-10,44],[6,105],[-8,48],[-96,-78],[-56,-49],[-79,-82],[-137,31],[-48,-50],[-17,-47],[-26,-17],[-34,-70],[-86,55],[-48,0],[6,84],[-15,118],[-31,3],[19,49],[-19,30],[10,63],[21,23],[32,75],[-45,-10],[-18,26],[-85,21],[-22,-10],[-76,-68],[-40,0],[-28,-61],[-98,49],[-107,-13],[-17,30],[-52,-7],[3,-66],[-38,-17],[4,69],[-22,64],[-10,72],[-67,111],[52,12],[-29,40],[-30,-2],[-36,44],[1,24],[27,43],[-8,84],[-37,116],[-35,36],[-83,-35],[-92,23],[1,29],[34,44],[26,22],[107,125],[29,43],[53,8],[20,78],[-30,58],[-39,49],[-60,2],[-29,77],[-29,28],[-38,78],[-27,5],[-26,92],[-40,5],[-32,42],[-40,9],[-30,38],[-47,85],[27,121],[46,53],[-6,47],[-71,29],[-13,29],[-34,7],[-13,58],[27,58],[13,84],[-7,37],[14,78],[-13,130],[-55,75],[-50,47],[-76,56],[-59,-1],[-60,39],[-32,41],[-29,57],[2,32],[-46,32],[-36,64]],[[33877,17185],[33,63],[48,40],[39,-8],[15,12],[15,101],[49,63],[41,80],[46,43],[2,31],[37,86],[30,21],[53,92],[7,65],[22,31],[46,1],[8,-79],[63,-73],[16,-54],[54,111],[-27,20],[3,44],[20,52],[-7,68],[38,7],[6,116],[137,74],[9,39],[52,13],[89,0],[73,25],[1,-31],[47,-41],[-34,-54],[6,-68],[14,-26],[65,-31],[69,-54],[33,-51],[21,73],[61,38],[14,51],[33,29],[38,-1],[37,79],[7,50],[49,36],[23,119],[-19,24],[-16,79],[33,86],[27,165],[-13,69],[25,23],[1,47],[30,75],[24,20],[26,11],[46,99],[-25,27],[0,33],[63,15],[20,59],[19,45],[44,-2],[32,21],[-16,59],[-6,65],[50,155],[-35,145],[17,110],[34,69],[-43,33],[-15,71],[-42,65],[19,53],[-6,88],[-36,63],[8,57],[6,55],[21,41],[24,22],[40,101],[-14,83],[-50,61],[12,49],[-19,112],[37,38],[-4,39],[25,28],[50,19],[-25,64],[14,55],[-30,64],[27,65],[-15,60],[37,62],[10,36],[57,60],[67,39],[38,53],[74,67],[2,35],[-36,64],[15,58],[63,92],[-29,62],[-17,109],[15,31]],[[45792,22666],[21,-46],[-62,1],[-22,-115],[37,-30],[-27,-35],[-56,-40],[-49,-85],[67,-41],[-20,-42],[-48,-5],[29,-57],[65,-7],[-81,-149],[-20,-139],[44,-37],[-2,-26],[-52,-44],[42,-65],[35,-101],[35,-13],[-12,-50],[17,-78],[-26,-25],[41,-44],[-19,-50],[32,-34],[25,-53],[17,-69],[-22,-79],[38,-48],[27,-90],[-29,-28],[-25,-89],[21,-45],[-6,-35],[-33,-2],[-2,-38],[23,-28],[22,-79],[56,-8],[-10,-49],[23,-14],[-29,-57],[3,-34],[-12,-28],[-39,4],[-29,-28],[-47,-12],[28,-71],[20,-16],[-31,-78],[22,-56],[-22,-32],[24,-92],[-29,-36],[20,-21],[42,2],[15,-77],[-9,-40],[17,-36],[-19,-31],[-40,2],[12,-44],[45,-18],[26,-41],[50,-48],[108,37],[8,-62],[-32,-25],[-36,-114],[45,-70],[-1,-76],[37,-39],[56,-37],[-34,-102],[33,-22],[-16,-46],[38,-65],[-4,-21],[-55,-48],[22,-56],[-8,-46],[21,-80],[29,-30],[-27,-117],[-27,-55],[22,-63],[-44,-31],[77,-14],[15,-24],[-15,-48],[-87,-37],[-42,-95],[-25,-34],[-38,30],[-92,-32],[-20,42],[-39,-6],[-19,-44],[-54,-26],[-8,-26],[-55,-50],[-6,-36],[13,-57],[59,-45],[27,-57],[38,-17],[33,-57],[-2,-45],[21,-30],[63,21],[19,24],[33,-12],[22,-84],[24,9],[11,-61],[43,3],[-13,-63],[31,-65],[25,-13],[-1,-97],[7,-82],[-40,-5],[41,-64],[-23,-60],[10,-39],[-8,-69],[52,8],[29,-58],[12,-94],[20,-17],[15,-57],[20,-27],[84,-26],[48,-30],[73,-12],[204,-81],[57,-34],[67,-77],[42,-106],[0,-66],[-16,-186],[9,-51],[47,-105],[35,-58],[80,-170],[34,-102],[87,-173],[58,-86],[35,-34],[107,-50],[128,-70],[116,-52],[203,-105],[61,-17],[219,-111],[100,-61],[130,-58],[167,-117],[45,-12],[181,-23],[192,-11],[230,-73],[143,-93],[80,-21],[49,3],[107,51],[37,31],[105,25],[111,13],[41,17],[28,36],[-1,57],[-64,70],[-62,23],[-49,53],[-57,122],[-3,51],[29,43],[58,18],[84,-6],[71,23],[47,70],[24,74],[-15,37],[-96,58],[-36,35],[20,55],[59,40],[50,21],[86,1],[39,-27],[54,-80],[69,-57],[58,-16],[72,9],[36,-10],[90,-106],[58,-69],[88,-84],[67,-48],[61,-20],[75,24],[22,39],[14,64],[-5,40],[-34,95],[66,161],[31,48],[103,-2],[81,41],[63,71],[73,39],[53,30],[88,83],[52,-14],[39,11],[93,64],[51,58],[109,3],[49,24],[45,40],[69,19],[116,48],[106,59],[69,65],[22,78],[77,47],[81,17],[82,52],[64,78],[79,28],[46,-18],[68,-48],[93,-13],[77,34],[35,37],[76,106],[67,16],[37,-16],[67,-60],[63,-21],[92,9],[40,16],[54,-30],[46,0],[64,36],[61,20],[62,1],[38,-62],[27,-22],[132,-50],[89,-56],[139,-31],[112,-39],[112,-32],[133,-75],[56,-49],[93,-64],[87,-104],[149,-221],[122,-132],[23,-49],[44,-147],[25,-53],[18,-71],[-1,-80],[40,-154],[7,-89],[-76,-75],[-28,-85],[16,-129],[25,-59],[22,-95],[55,-95],[10,-39],[-48,2],[-7,25],[-57,27],[-92,64],[-54,50],[-19,-28],[-26,-39],[-6,-43],[16,-65],[29,-221],[24,-103],[50,-77],[75,-11],[108,10],[143,56],[-30,-45],[-77,-88],[-65,-136],[-50,-125],[-50,-199],[-19,-118],[-10,-146],[-11,-79],[3,-44],[-22,-176],[-11,-157],[-21,-200],[8,-26],[-11,-92],[-48,-282],[-44,-298],[-9,-355],[-32,-4],[-77,-67],[-4,-42],[27,-120],[16,-23],[-20,-97],[-95,-186],[-58,-91],[-94,-130],[-87,-105],[-110,-81],[-101,-54],[-95,-17],[-45,6],[-10,36],[132,-2],[71,43],[3,45],[114,15],[37,33],[121,153],[46,49],[24,56],[43,53],[14,45],[80,125],[-49,-5],[-80,-73],[-65,9],[-44,-69],[-80,-71],[-27,13],[-143,1],[-106,-15],[-64,-23],[-320,-68],[-30,-11],[-264,-54],[-146,-15],[-227,1],[-98,-19],[-219,-22],[-153,-26],[-148,-43],[-53,-33],[-126,-60],[-19,26],[-157,-43],[-217,-109],[-78,-58],[-136,-115],[-155,-159],[-171,-203],[-199,-276],[-5,-21],[-63,-89],[-82,-143],[-53,-46],[-28,-53],[-30,-31],[-49,-114],[-7,-45],[-85,-197],[-122,-266],[-104,-234],[-101,-207],[-76,-133],[-113,-170],[-90,-103],[-66,-89],[-48,-49],[-133,-177],[-62,-103],[-27,-22],[-15,-15],[-90,-134],[-121,-192],[-31,-57],[-55,-64],[-74,-163],[-34,-126],[-20,-29],[-42,11],[-9,-31],[-83,15],[-27,-41],[-15,-70],[-33,-36],[210,-13],[-1,-12],[-117,10],[-173,8],[-25,-57],[-53,-191],[-19,-134],[-4,-88],[4,-202],[19,-112],[20,-80],[41,-87],[59,-38],[31,-35],[-6,-44],[29,-86],[-5,-121],[31,-91],[-55,-41],[-10,-51],[-32,-52],[11,-118],[74,26],[7,-24],[-72,-43],[11,-36],[43,3],[6,-65],[-77,-19],[-9,-91],[3,-59],[-9,-87],[31,-2],[5,74],[113,-7],[-2,-49],[163,-9],[-1,-107],[-31,-30],[-118,6],[-146,-39],[-32,-65],[3,-71],[16,-46],[-5,-43],[28,-132],[38,-69],[10,-55],[24,-40],[25,-136],[12,-32],[-12,-41],[12,-93],[15,-27],[-1,-50],[-29,-17],[-38,-70],[3,-28],[-7,-51],[-76,-96],[-15,-53],[-2,-99],[-32,-59],[17,-87],[-10,-25],[-37,-87],[-23,-13],[-31,-78],[-21,-14],[-52,-201],[-3,-81],[17,-168],[-44,-49],[-46,-27],[-13,-32],[8,-90],[-34,-176],[-31,-28],[-16,-87],[-17,-18],[61,-24],[-31,-33],[-12,-197],[-17,-43],[-7,-63],[27,-88],[-1,-65],[-773,-45],[-412,120],[-160,48],[-653,57],[-575,289],[-128,64],[-298,187],[-286,174],[-68,30],[-58,25],[-104,529],[-130,357],[-36,263],[-21,143],[-78,103],[-82,111],[-427,-381],[-521,-74],[-95,-43],[-163,53],[-13,41],[-199,600],[-175,166],[-185,-326],[-698,79],[-137,15],[-404,-92],[-167,241],[-85,181],[-263,100],[-116,50],[-3,71],[-63,97],[-17,51],[-4,56],[46,41],[-44,48],[8,65],[-39,37]],[[25622,953],[48,172],[-85,38],[33,73],[107,-29],[9,62],[61,13],[-16,114],[72,16],[-11,71],[115,31],[190,62],[-57,111],[11,93],[94,-1],[1,30],[-55,16],[-11,25],[-2,-1],[-44,4],[-58,33],[-62,-11],[-39,9],[-74,-9],[-28,30],[41,31],[44,-30],[47,4],[57,34],[0,30],[-37,35],[-26,45],[-60,61],[-12,85],[-31,29],[-9,64],[-147,-37],[-35,149],[90,20],[-8,63],[-5,53],[-81,-1],[-28,23],[-51,105],[-9,45],[-51,87],[-40,-12],[-20,98],[121,45],[-7,22],[-75,11],[-12,156],[-73,-10],[-10,30],[-55,-22],[-36,7],[-3,73],[30,2],[12,68],[-57,-11],[-19,30],[48,21],[17,25],[0,57],[-53,-37],[-7,28],[51,26],[30,43],[30,105],[-11,29],[-5,15],[89,69],[26,-14],[156,74],[353,89],[-5,47],[-38,13],[34,38],[-45,93],[67,21],[222,67],[-9,44],[38,8],[220,37],[-15,52],[201,36],[44,16],[7,-35],[68,53],[-26,92],[15,74],[-18,61],[-35,76],[-2,73],[-30,28],[-127,115],[-53,67],[-16,133],[-13,53],[-56,133],[53,91],[136,148],[65,80],[-13,10],[-100,53],[60,33],[-46,48],[25,18],[18,134],[10,122],[-27,72],[-13,25],[-5,71],[16,70],[66,32],[-27,70],[54,16],[23,26],[18,49],[-55,32],[-57,91],[9,38],[-68,163],[-3,56],[59,30],[115,35],[109,9],[83,-5],[29,42],[8,56],[-14,28],[-16,43],[-6,63],[-42,-2],[-79,4],[-241,-6],[0,-59],[-43,-3],[-36,58],[-99,-9],[-8,53],[-184,-68],[2,24],[-63,26],[12,29],[37,18],[1,34],[-52,162],[47,16],[14,94],[-11,99],[20,63],[-9,28],[9,84],[-128,1],[4,242],[-43,6],[12,173],[13,75],[23,75],[41,91],[-15,67],[-44,10],[-17,63],[33,-3],[0,47],[-30,31],[-8,96],[-46,82],[-60,12],[-11,312],[21,57],[26,30],[-37,19],[-17,89],[-29,32],[12,66],[-19,49],[22,20],[-12,38],[-69,319],[-32,42],[145,94],[1,36],[64,2],[-66,64],[-41,98],[-88,14],[-28,33],[-83,-15],[-34,15],[-79,-20],[-113,-51],[5,28],[-81,120],[-45,32],[-16,39],[-41,-7],[-31,-19],[-21,65],[-12,102],[-6,56],[-31,-4],[35,211],[-58,0],[-24,94],[-15,16],[-2,62],[-56,51],[-41,104],[-7,78],[-18,41],[8,49],[-10,61],[-46,19],[9,155],[-19,116],[-41,6],[-56,25],[-37,-109],[-25,-45],[10,-49],[-9,-49],[-48,-8],[28,-83],[-5,-103],[-14,-16],[-46,14],[-30,-74],[4,-53],[-68,-14],[-16,-74],[-88,-29],[-76,-31],[-40,-40],[-6,48],[-66,17],[-52,52],[-15,32],[87,132],[10,35],[42,69],[40,8],[64,77],[25,77],[-16,27],[19,65],[48,85],[23,81],[-75,25],[-17,31],[-1,84],[38,57],[-2,34],[49,40],[44,80],[60,32],[19,39],[-80,71],[-58,-35],[-43,-11],[61,141],[-8,70],[19,41],[40,35],[19,67],[73,89],[30,10],[-91,112],[-29,13],[-18,44],[46,67],[22,-3],[69,106],[56,53],[13,73],[-35,15],[-15,40],[-79,9],[-100,45],[20,31],[11,60],[31,52],[63,31],[26,46],[-13,38],[-44,19],[17,35],[-12,47],[-41,21],[8,72],[56,44],[60,-65],[20,57],[-9,55],[20,59],[-9,23],[20,47],[-22,81],[-86,117],[-19,83],[31,-12],[56,14],[-14,84],[52,14],[15,29],[-50,84],[-77,2],[-74,62],[37,45],[44,11],[-28,53],[-68,32],[-41,-28],[-30,32],[-22,103],[7,45],[-20,33],[44,56],[-17,28],[34,34],[38,126],[1,53],[-25,36],[72,87],[2,39],[-26,60],[9,35],[-43,37],[-4,55],[50,42],[12,66],[-16,71],[12,14],[-48,72],[-56,-17],[-1,93],[-22,70],[19,42],[0,48],[81,7],[84,-49],[20,66],[-23,25],[-21,62],[13,15],[-28,51],[9,25],[49,-5],[7,29],[-17,60],[-64,87],[-10,102],[-37,52],[8,109],[-34,93],[10,104],[28,122],[61,19],[88,-11],[25,22],[55,83],[-5,66],[18,143],[-42,82],[-36,34],[-10,63],[25,45],[39,18],[23,38],[26,2],[53,61],[-25,70],[-36,166],[7,75],[-47,99]],[[24841,17866],[22,-4],[37,35],[118,34],[72,-78],[26,25],[92,54],[61,76],[31,-14],[34,38],[25,-7],[61,13],[23,41],[40,-25],[64,24],[28,-20],[53,13],[2,-44],[20,-26],[54,-8],[47,37],[34,50],[57,15],[24,-31],[65,20],[35,25],[56,-4],[17,14],[43,-48],[130,59],[68,12],[37,-4],[108,-68],[47,22],[43,48],[21,-28],[54,-18],[39,8],[15,-34],[4,-60],[17,-35],[73,9],[38,-22],[24,30],[69,-2],[19,-13],[62,13],[93,10],[54,-22],[40,17],[112,-107],[30,-6],[99,96],[53,2],[74,-29],[28,-31],[54,17],[40,-15],[73,-5],[73,22],[59,39],[91,-54],[107,-12],[68,-34],[126,32],[35,-34],[22,-43],[74,-45],[22,-58],[32,-40],[61,-22],[36,-117],[33,-33],[28,-3],[52,-47],[24,-6],[81,-121],[84,-28],[48,66],[41,-48],[43,-33],[63,-4],[-21,-53],[16,-63],[33,-46],[-7,-100],[-18,-61],[6,-60],[47,-50],[21,-63],[50,-66],[-7,-35],[61,-52],[22,6],[24,-45],[-34,-27],[-39,-7],[-57,-86],[74,-118],[8,-63],[23,-10],[20,7],[31,55],[42,10],[35,50],[48,10],[27,-72],[10,-79],[24,-59],[-2,-42],[-22,-47],[79,-77],[138,46],[14,19],[66,3],[16,27],[68,-4],[30,-14],[55,5],[88,-25],[32,31],[11,92],[-17,121],[14,79],[2,33],[29,36],[86,69],[29,-12],[103,43],[13,53],[40,61],[50,-12],[57,21],[32,57],[153,83],[74,-42],[42,-60],[112,53],[34,-4],[91,30],[30,-1],[68,-60],[81,21],[24,116],[102,82],[28,44],[3,56],[75,-6],[8,-26],[141,30],[74,44],[110,-95],[1,-60],[23,-38],[45,-35],[87,-93],[95,22],[63,-1],[71,-20],[27,34],[6,40],[40,35],[47,19],[22,-9],[40,-66],[62,-22],[97,-234],[18,-10],[3,-60],[-29,-32],[38,-24],[79,1],[77,-33],[22,-36],[44,10],[8,114],[62,67],[52,26],[4,79],[18,47],[-28,66],[32,36],[25,67],[-37,89],[55,104],[43,15],[35,86],[25,33],[8,50],[44,19],[63,-83],[31,5],[103,-20],[38,-28],[37,31],[40,3],[89,25],[60,-62],[39,-93],[6,-65],[38,-4],[48,-32],[15,-3],[59,-68],[76,59],[66,4],[12,104],[-4,53],[34,30]],[[40866,4621],[-76,-15],[-32,-41],[-64,-21],[-48,-13],[-95,2],[-95,22],[-92,12],[-54,56],[-64,47],[-112,61],[-62,18],[-68,-2],[-124,-31],[-71,-34],[-56,-1],[-113,24],[-111,82],[-71,-11],[-65,-21],[-141,-65],[-45,-3],[-104,19],[-41,4],[-123,-25],[-72,-9],[-94,12],[-81,-23],[-137,-93],[-129,-48],[-70,-39],[-85,-73],[-249,-166],[-33,-25],[-88,-42],[-228,-47],[0,17],[-91,15],[-104,-16],[-72,-32],[-88,-55],[6,-19],[-121,-26],[-33,1],[-134,-36],[-126,-55],[-131,36],[-190,3],[-113,-23],[-95,-46],[-91,-24],[-168,-52],[5,-21],[-78,-22],[-62,-6],[-51,23],[-114,17],[-39,25],[-114,25],[-51,-8],[-111,-42],[-60,-33],[-170,-56],[-47,-10],[-146,-137],[-158,-90],[-71,-22],[-77,-49],[-191,-89],[-84,-8],[-2,17],[-127,3],[-64,-11],[-128,-55],[-78,-54],[-57,-80],[-53,-98],[13,-13],[-56,-63],[-82,-113],[-25,-57],[-44,-54],[-35,-90],[-62,-81],[-59,-40],[-116,-63],[-68,-55],[-9,15],[-92,-84],[-42,-55],[-98,-58],[-44,-39],[-72,-69],[-65,-100],[-60,-113],[-24,-93],[-23,-60],[-45,-27],[-91,-123],[-34,-81],[18,-25],[-172,-207],[-53,-40],[-60,-30],[-69,-29],[-13,16],[-90,-92],[-27,-45],[-52,-147],[-73,-93],[-126,-76],[-97,-64],[-44,-21],[-88,-23],[-3,14],[-103,4],[-169,-6],[-39,-14],[-96,-67],[-44,-54],[-99,-37],[-83,-48],[-121,-91],[-107,-92],[-60,-26],[-93,-12],[-107,18],[-99,0],[-6,17],[-185,-58],[-96,-67],[-56,-24],[3,-19],[-90,-17],[-170,-53],[-95,-15],[-40,4],[-59,26],[-29,-6],[-99,45],[-68,47],[-100,110],[-88,55],[-115,55],[-14,27],[-76,95],[-26,45],[-90,77],[-36,15],[-138,33],[-151,48],[-42,19],[-95,37],[-171,-61],[-38,0],[-27,-23],[-124,-51],[-89,4],[-66,24],[-102,19],[-80,23],[-37,21],[-121,134],[-64,41],[-30,77],[-28,26],[-41,20],[-153,7],[-75,16],[-50,-3],[-35,-7],[-68,-49],[-1,-67],[-55,1],[-140,-43],[-119,-41],[-89,-9],[-47,8],[-114,53],[-72,6],[-84,-18],[-60,-31],[-155,-121],[-117,-68],[-106,-18],[-81,27],[-92,52],[-124,102],[-154,170]],[[32858,8329],[132,-156],[-105,-216],[-40,-66],[64,-32],[23,-27],[5,-68],[-67,-170],[-119,80],[-7,-35],[-43,8],[-26,47],[2,46],[22,44],[-35,53],[-47,25],[-80,-117],[51,0],[12,-27],[8,-145],[-15,-32],[71,-21],[0,-16],[-86,-90],[-10,-24],[102,-62],[23,-48],[-92,-59],[-43,-43],[-89,-39],[-40,-44],[6,-55],[23,-23],[48,10],[70,-46],[38,24],[12,-18],[-13,-67],[7,-58],[72,-64],[3,-73],[36,-19],[42,17],[38,8],[14,-27],[-18,-69],[45,-30],[7,-23],[74,-93],[23,1],[57,36],[47,4],[71,-66],[46,-12],[4,-22],[-25,-36],[13,-42],[63,-9],[47,38],[-14,42],[40,28],[14,-39],[35,-31],[57,-24],[12,-22],[5,-59],[34,-22],[-57,-126],[-83,-167],[-4,-47],[109,207],[36,74],[49,17],[28,-58],[68,-21],[27,-12],[100,-156],[51,-48],[37,-13],[87,9],[47,-22],[22,-93],[92,-77],[103,-29],[85,-68],[42,-18],[17,31],[37,19],[33,-5],[8,-32],[66,132],[17,-28],[83,-53],[31,63],[-28,33],[81,159],[25,11],[29,-68],[108,150],[99,137],[37,-33],[25,35],[-34,29],[126,173],[-136,119],[84,77],[79,93],[37,-27],[50,66],[38,8],[24,-30],[71,81],[-23,19],[98,90],[-36,22],[-59,-21],[-17,92],[11,62],[-24,28],[-58,-18],[-20,46],[12,38],[-61,-3],[-6,59],[-107,4],[-49,33],[51,9],[76,34],[42,31],[25,-8],[28,-43],[42,-3],[-2,-47],[34,-55],[33,-3],[25,-96],[22,-20],[38,22],[-45,60],[90,53],[19,-40],[29,13],[-5,36],[27,70],[145,102],[83,-53],[52,47],[16,157],[233,-6],[2,61],[58,-2],[1,107],[38,27],[-35,33],[-13,-57],[-39,0],[-34,51],[-66,-48],[-181,5],[-3,78],[-77,-10],[1,52],[-32,-12],[3,75],[-95,80],[166,165],[63,67],[43,-31],[52,123],[-6,41],[-85,47],[-46,66],[-23,2],[-125,-108],[-60,89],[-80,115],[-26,-25],[-9,9],[112,153],[29,-29],[23,35],[-27,24],[122,158],[-52,51],[167,186],[-25,124],[-124,-34],[-45,178],[-50,8],[3,101],[-30,74],[-45,82],[-85,63],[52,102],[28,-26],[42,33],[38,-6],[60,97],[-51,32],[5,33],[69,136],[-17,4],[-140,92],[8,7],[-273,338],[-4,-20],[-159,20],[-11,-117],[-82,9],[-2,-35],[-8,-99],[-43,-37],[-33,11],[-20,33],[-119,59],[-146,15],[-61,60],[-17,-43],[-38,-35],[-72,55],[-40,4],[-13,27],[-59,-44],[-60,-36],[-116,41],[-63,114],[-28,-37],[-48,-24],[59,-185],[-80,17],[-12,39],[-34,-9],[-12,39],[-25,18],[-57,-27],[12,-52],[-18,-31],[-48,-37],[-29,-1],[13,65],[-52,9],[-37,-21],[-57,35],[-36,-26],[-44,-9],[-61,-51],[-25,57],[-28,18],[-80,-25],[-15,-39],[-50,13],[0,44],[20,38],[-12,24],[-38,-10],[14,-63],[-16,-20],[23,-63],[27,-1],[22,-41],[-23,-65],[10,-94],[24,-95],[98,11],[-20,-91],[-25,-41],[-96,2],[-49,-24],[30,-51],[28,15],[13,-50],[34,15],[41,-38],[-55,-9],[26,-44],[-40,-55],[-63,-23],[-11,-31],[-100,26],[-18,-106],[164,-127],[74,-16],[49,-64],[-4,-34],[24,-63],[-66,-77],[-54,-40],[-84,-106],[-159,-149],[-28,-2],[-204,-125],[-59,-36],[64,-115],[42,-68]],[[10222,8927],[43,73],[37,-12],[185,37],[13,47],[40,14],[47,48],[33,-35],[43,12],[30,-51],[11,-45],[32,-41],[29,-71],[48,-43],[70,15],[6,42],[25,13],[50,-93],[26,-19],[53,58],[-13,47],[51,59],[3,47],[52,75],[20,54],[-20,86],[27,54],[-35,79],[-71,21],[-29,-9],[-46,32],[-42,62],[33,167],[25,50],[-20,52],[19,61],[-12,39],[14,35],[25,64],[-1,39],[21,139],[-8,43],[65,49],[100,-5],[52,45],[-7,36],[73,108],[-31,43],[-22,117],[20,37],[4,74],[46,75],[-2,53],[12,62],[-12,49],[97,-30],[51,-42],[27,-6],[39,-13],[46,-76],[3,-49],[46,-22],[20,-60],[84,-35],[116,-6],[78,-47],[63,2],[31,26],[30,-3],[55,-34],[26,-54],[46,-137],[1,-103],[67,9],[5,99],[39,30],[53,-4],[39,44],[57,-22],[32,-40],[57,21],[25,-8],[14,63],[-18,71],[22,19],[21,58],[28,14],[-22,59],[2,46],[-15,76],[26,17],[14,62],[47,35],[45,83],[-10,94],[51,46],[37,71],[-13,55],[16,16],[43,39],[20,110],[41,29],[-7,39],[52,33],[4,71],[13,52],[-38,117],[46,15],[-5,49],[37,95],[-31,85],[-1,66],[-19,15],[-1,61],[41,10],[49,46],[83,3],[-6,60],[-35,44],[-100,56],[67,97],[119,112],[35,11],[38,41],[57,103],[74,79],[27,114],[71,79],[54,3],[11,30],[38,29],[6,37],[39,11],[-3,42],[51,52],[34,75],[23,7],[70,94],[38,91],[30,12],[33,47],[29,10],[18,52],[5,61],[-47,118],[-57,-5],[-66,70],[-74,-7],[-58,32],[-63,-31],[-82,30],[-73,79],[-53,97],[6,61],[36,59],[48,52],[6,69],[57,62],[19,51],[42,24],[28,65],[83,35],[68,-6],[65,70],[46,32],[26,50],[-6,75],[93,20],[52,48],[22,67],[49,40],[1,46],[32,-20],[0,-34],[46,17],[-6,56],[57,-11],[68,-46],[88,-3],[9,44],[35,22],[11,40],[83,-2],[26,41],[71,-3],[27,-58],[28,-2],[83,79],[39,-11],[51,23],[55,62],[-1,54],[73,-25],[41,-30],[35,-46],[49,16],[38,-134],[43,10],[54,50],[65,24],[28,38],[39,0],[75,45],[8,-20],[91,12],[64,-48],[68,-4],[-64,-50],[-43,-136],[-35,-57],[-55,-44],[119,-27],[19,27],[-1,65],[34,102],[-8,67],[34,40],[45,-1],[26,-111],[40,-46],[65,10],[58,46],[29,-44],[38,-18],[36,30],[34,-10],[86,30],[125,70],[53,-12],[38,108],[33,-10],[40,43],[55,96],[152,-41],[75,-55],[50,4],[50,52],[43,-62],[75,-3],[45,13],[19,36],[36,2],[88,-60],[32,-13],[41,44],[4,61],[56,97],[45,6],[13,30],[69,34],[66,4],[52,2],[58,-14],[74,32],[80,-52],[40,-38],[43,26],[55,65],[7,92],[40,75],[26,29],[83,1],[19,17],[106,-15],[15,61],[47,-15],[35,-32],[62,14],[17,-33],[4,-78],[-32,-62],[78,-44],[37,-35],[100,-31],[14,-50],[75,1],[44,29],[72,12],[31,37],[14,47],[57,27],[31,39],[40,18],[64,52],[95,16],[47,32],[10,71],[71,-10],[66,41],[26,59],[79,21],[59,7],[-28,36],[-4,112],[27,38],[61,31],[8,50],[-8,50],[-24,40],[-29,79],[-7,104],[24,26],[-14,58],[-34,-1],[-57,27],[2,38],[48,51],[17,93],[49,92],[-14,66],[21,55],[0,51]],[[19442,16890],[45,-50],[27,5],[45,-24],[48,25],[33,-28],[-8,-63],[61,-29],[41,42],[37,-25],[32,37],[115,32],[3,47],[57,73],[0,48],[50,42],[34,81],[104,51],[25,-11],[92,0],[29,40],[77,25],[31,25],[36,-4],[115,159],[23,19],[60,16],[33,-18],[53,-6],[51,17],[171,35],[54,-85],[49,-26],[31,37],[138,18],[58,27],[45,38],[60,-5],[104,-36],[94,-11],[49,31],[37,-9],[72,-9],[43,-46],[61,48],[76,-30],[70,-54],[36,-5],[99,-30],[13,-14],[46,-21],[88,-23],[56,8],[49,-20],[66,11],[29,-33],[1,29],[100,28],[66,-23],[28,37],[46,-25],[69,5],[44,58],[110,28],[32,-4],[56,48],[-3,29],[62,75],[26,66],[76,-36],[94,-2],[54,57],[-3,58],[62,-5],[43,55],[88,21],[52,28],[94,89],[47,5],[20,-41],[45,36],[29,-15],[56,14],[87,54],[40,-2],[43,17],[32,-17],[107,18],[59,-19],[74,5],[20,48],[51,28],[69,-78],[62,-11],[36,16],[39,-94],[19,8],[101,75],[22,34],[44,13],[57,-56]],[[25622,953],[-96,95],[-102,76],[-72,33],[-126,47],[-110,33],[-65,0],[-204,47],[-67,23],[1,21],[-86,-31],[-180,-112],[-123,-66],[-10,24],[-166,-52],[-58,-28],[-61,-75],[-6,-21],[-68,-51],[-21,-34],[14,-28],[-69,-46],[-89,-74],[-35,-21],[-42,-1],[-138,31],[-152,-24],[-185,-48],[-26,-12],[-98,-11],[-115,-42],[-69,-2],[-66,-13],[-54,-14],[-77,2],[-85,27],[-76,47],[-129,60],[-63,21],[-153,23],[-84,80],[-15,37],[-82,51],[-150,60],[-59,18],[-181,95],[-75,26],[-97,24],[-190,0],[-94,28],[-215,44],[-100,38],[-46,32],[-101,47],[6,15],[-76,36],[-49,37],[-45,2],[-124,36],[-97,57],[-89,139],[-122,4],[-85,18],[-79,5],[-34,-14],[-52,3],[-129,-33],[-127,-48],[-137,-25],[-100,32],[-46,22],[-74,-1],[-76,33],[-32,37],[-110,65],[-115,102],[10,13],[-60,59],[-46,26],[-55,5],[-101,31],[-95,21],[-98,58],[-83,37],[-105,20],[-144,-21],[-100,-27],[-124,14],[-93,9],[-89,-1],[-123,-17],[-187,-11],[-52,-22],[-72,-48],[-44,-19],[-58,3],[-94,-40],[-57,-35],[-76,-34],[-87,-39],[-216,-121],[-64,-29],[-274,-50],[-29,-16],[-107,-15],[-81,5],[-82,66],[-125,18],[-128,36],[-6,-20],[-54,11],[-98,42],[-33,1],[-25,51],[-85,43],[-122,13],[-106,34],[-124,58],[-41,29],[-79,111],[-60,121],[-4,82],[-19,46],[-3,81],[55,159],[84,180],[9,82],[-20,8],[47,126],[29,168],[32,141],[76,93],[105,24],[112,62],[238,67],[6,-26],[46,6],[148,43],[35,21],[38,48],[-16,17],[54,66],[44,70],[42,84],[46,120],[1,51],[-8,41],[-42,106],[-76,89],[-65,39],[-126,38],[-161,6],[-163,12],[-61,21],[-155,115],[-109,117],[-54,50],[-133,86],[-44,36],[-160,67],[-99,84],[-82,80],[-191,237],[-76,28],[-107,19],[-58,1],[-79,12],[-50,32],[-73,81],[-10,50],[12,97],[62,164],[5,129],[-38,118],[-40,50],[-157,81],[-47,12],[-114,-5],[-71,21],[-65,31],[-92,42],[-85,18],[-47,55],[-45,101],[-106,107],[-34,44],[-42,174],[-48,143],[-27,58],[-17,96],[-12,196],[17,43],[-120,141],[-54,37],[-44,74],[-16,72],[-23,57],[-10,100],[29,68],[28,20],[48,8],[131,-27],[119,-54],[43,8],[140,83],[41,74],[30,140],[0,140],[15,115],[56,94],[56,53],[107,26],[83,2],[69,-22],[47,-35],[47,-15],[44,-50],[26,-28],[173,-147],[44,-23],[42,-5],[72,25],[111,70],[166,87],[24,30],[4,68],[-14,70],[-29,64],[-130,182],[-145,181],[-99,28],[-55,33],[-34,80],[-52,16],[-165,-41],[-76,-6],[-50,13],[-99,62],[-121,90],[-68,44],[-55,106],[-88,113],[-37,24],[-18,37],[-63,77],[-55,52],[-32,71],[-80,74],[-94,107],[-60,36],[-15,5],[-15,6],[-184,-43],[-66,-35],[-65,-90],[-66,-107],[-51,-48],[-35,-28],[-92,-36],[-63,4],[-105,35],[-44,-12],[-75,-92],[-60,-59],[-29,-50],[-6,-79],[-19,-58],[-145,-116],[-22,-155],[-35,-111],[-51,-81],[-85,-150],[-64,-86],[-94,-227],[-33,-102],[-35,-77],[-43,-64],[-30,-106],[7,-48],[-23,-72],[-24,-36],[-59,-46],[-161,-30],[-48,3],[-53,20],[-27,28],[-197,159],[-78,87],[-16,69],[2,65],[-34,79],[-67,66],[-87,66],[-37,55],[-42,126],[-15,90],[7,147],[-11,43],[-51,49]],[[6871,27619],[46,0],[143,28],[-53,41],[-27,-35],[-36,28],[30,33],[72,-10],[42,-44],[14,-41],[52,18],[44,72],[31,-15],[43,-53],[12,-65],[-4,-92],[127,-41],[35,-26],[22,-79],[22,-175],[30,15],[91,-24],[1,114],[-43,61],[49,56],[-26,38],[-9,89],[15,5],[37,91],[75,0],[26,-22],[83,-2],[38,-24],[61,11],[49,31],[11,24],[29,27],[56,93],[40,-24],[68,17],[38,-10],[108,15],[52,-49],[48,-4],[47,-8],[44,32],[47,13],[11,-36],[55,23],[84,12],[102,-39],[64,-44],[151,16],[72,51],[41,14],[59,48],[78,6],[56,32],[42,76],[29,-7],[61,-49],[56,-19],[64,-37],[30,-51],[-18,-50],[-71,-96],[-49,-81],[-32,-63],[172,-6],[-2,-27],[94,-44],[102,-13],[48,-38],[33,0],[44,37],[68,-9],[69,5],[17,29],[41,2],[45,62],[17,57],[45,40],[24,80],[22,-5],[19,-46],[79,-24],[21,-45],[49,9],[142,-53],[47,24],[15,-50],[-5,-96],[35,-42],[43,-7],[40,18],[8,-76],[25,-25],[48,-23],[49,7],[14,36],[43,-35],[43,0],[50,20],[70,-10],[40,-69],[-31,-118],[-20,-13],[-12,-98],[33,-58],[-4,-37],[32,-23],[4,-44],[21,-59],[3,-68],[-24,-28],[49,-95],[33,-14],[11,-33],[69,-80],[35,1],[51,83],[23,-47],[41,-16],[-1,-48],[58,-6],[13,-21],[29,-34],[28,14],[34,29],[92,-57],[55,17],[88,68],[29,-2],[75,47],[60,-5],[-11,-28],[24,-90],[-23,-56],[29,-45],[-29,-64],[32,-46],[36,-3],[25,-41],[30,-108],[13,-77],[-8,-33],[38,-63],[48,-34],[81,1],[29,-45],[17,-35],[-74,-24],[47,-30],[140,-134],[59,-4],[28,-71],[49,-36],[-3,-38],[38,-12],[127,-63],[79,17],[25,-12],[196,6],[86,7],[98,25],[111,39],[66,-15],[47,49],[109,-5],[82,-38],[115,-27],[49,-4],[85,17],[42,50],[25,6],[33,59],[59,15]],[[14073,25382],[-5,-99],[29,-66],[10,-23],[53,-12],[43,-47],[-6,-70],[9,-50],[85,-30],[81,13],[39,-42],[51,-21],[32,-50],[76,13],[26,-21],[45,0],[54,-81],[38,-25],[57,1],[25,-40],[6,-42],[42,-34],[53,24],[79,-10],[100,18],[21,55],[89,20],[44,-5],[65,-36],[54,-12],[104,-22],[54,9],[58,-54],[-1,-66],[21,-62],[25,-35],[1,-77],[51,-17],[35,-33],[10,-49],[30,-46],[-61,-101],[-40,-39],[42,-59],[-5,-50],[16,-87],[19,-12],[42,-33],[3,-40],[44,-21],[24,-58],[16,-92],[52,7],[67,-59],[56,28],[24,-23],[51,-1],[27,-23],[56,-14],[65,52],[39,-41],[71,-16],[0,-80],[100,-88],[21,-42],[31,-20],[-24,-46],[-5,-103],[34,-30],[-6,-35],[49,-46],[4,-34],[-31,-101],[-78,57],[-33,40],[-21,-40],[-60,-22],[-43,1],[-20,-20],[15,-83],[58,-84],[-20,-51],[2,-61],[-16,-34],[78,8],[82,-63],[7,-49],[-25,-6],[5,-50],[-36,-66],[48,-44],[-18,-82],[74,-33],[22,-21],[5,-90],[-10,-57],[40,10],[59,-40],[62,5],[30,-37],[110,-34],[55,-27],[40,7],[48,-14],[37,-38],[92,52],[27,29],[65,-7],[45,-21],[38,26],[27,39],[41,-14],[-40,-73],[18,-94],[-7,-37],[21,-67],[-16,-120],[-15,-56],[7,-41],[65,-80],[29,-62],[-8,-70],[26,-54],[22,-112],[34,-90],[26,-41],[65,-17],[58,-65],[45,-17],[83,38],[14,-26],[46,16],[34,-52],[52,23],[3,-53],[-25,-31],[-111,-39],[-67,-99],[30,-5],[54,-35],[46,-79],[35,-8],[6,-80],[-32,-40],[17,-62],[-31,-74],[12,-83],[-18,-41],[32,-60],[10,-68],[36,-36],[15,-96],[24,-17],[0,-76],[53,-59],[-30,-45],[53,-106],[52,-4],[57,-40],[0,-59],[32,-52],[-5,-57],[-30,-36],[-2,-43],[-27,-56],[-14,-97],[-43,-88],[17,-26],[17,-69],[94,-115],[75,-5],[56,-66],[55,-29],[25,2],[25,-48],[-3,-79],[-79,-16],[-40,-86],[-88,-17],[-9,-61],[-77,-55],[-36,-62],[24,-103],[41,-39],[102,79],[86,30],[36,-23],[25,-44],[41,-31],[-28,-46],[-8,-39],[22,-58],[-28,-48],[0,-93],[51,-67],[73,30],[33,-19],[45,-54],[65,18],[84,-27],[21,-47],[34,33],[66,16],[24,-74],[-7,-69],[68,-98],[49,-22],[77,-3],[24,-46],[61,-59],[17,-68],[47,-20],[36,-32],[22,-42],[3,-49],[30,-73],[30,-23],[8,-42],[67,-86],[-22,-36],[36,-79],[-5,-41]],[[10222,8927],[-62,72],[-40,195],[-52,48],[-107,-6],[-120,19],[-59,28],[-119,78],[-34,8],[-95,-26],[-56,6],[-120,43],[-52,6],[-98,32],[-73,-28],[-78,-8],[-38,14],[-77,101],[-30,9],[-119,-26],[-158,-53],[-88,-17],[-58,4],[-38,18],[-92,71],[-44,14],[-78,-3],[-135,-41],[-66,-10],[-50,18],[-73,70],[-50,158],[-4,122],[26,124],[-36,166],[-23,59],[-80,160],[-22,25],[-136,79],[-141,47],[-53,7],[-157,-16],[-259,52],[-79,-15],[-64,1],[-61,-18],[-58,6],[-91,36],[-41,45],[-16,52],[-25,150],[-51,92],[-64,43],[-42,16],[-11,50],[46,18],[-59,83],[24,50],[-3,56],[54,133],[24,19],[71,-12],[26,41],[51,-29],[60,0],[53,55],[64,-13],[27,-27],[24,25],[32,-13],[24,36],[54,0],[56,-56],[21,26],[69,6],[32,-23],[21,30],[28,-3],[78,45],[23,34],[128,23],[160,59],[-16,144],[5,16],[-43,84],[11,74],[-35,60],[-124,82],[-33,-14],[-77,58],[-99,47],[-119,82],[-138,34],[-43,-15],[-183,163],[47,76],[-57,27],[9,24],[-106,51],[-32,35],[-132,169],[80,69],[99,-10],[53,30],[29,41],[42,15],[82,-9],[174,46],[-35,106],[-17,25],[20,57],[26,19],[29,84],[77,98],[8,28],[50,47],[-13,37],[-33,31],[-33,53],[29,64],[22,87],[53,38],[48,-8],[43,33],[142,89],[8,86],[-9,33],[-22,76],[-42,87],[-136,43],[-56,162],[-25,15],[-125,51],[-110,38],[-48,95],[-111,76],[-4,30],[-45,39],[-46,-94],[-149,66],[-56,-36],[-95,88],[-26,37],[-39,-12],[-73,26],[-87,16],[-75,29],[-100,-117],[-106,91],[-8,17],[-188,106],[-28,-22],[-94,133],[35,90],[-69,64],[-33,47],[-9,60],[-57,170],[21,35],[0,42],[-47,39],[-54,-50],[-25,49],[-71,-84],[27,-32],[-56,-69],[-97,-1],[-48,-24],[-58,-12],[-77,-44],[-91,199],[-57,-24],[-58,7],[13,146],[-197,-53],[-53,-10],[-23,-4],[-39,152],[-60,4],[-71,78],[-34,64],[-72,61],[-52,25],[-56,74],[-14,98],[-100,11],[-7,50],[32,4],[-24,85],[-43,47],[-22,91],[-115,-3],[-148,82],[-61,53],[6,32],[56,35],[-7,66],[41,-1],[-21,36],[8,34],[-49,18],[4,37],[-30,48],[-36,11],[-157,123],[-361,0],[0,74],[35,22],[-48,88],[207,133],[16,10],[123,165],[27,17],[-77,133],[21,13],[-69,127],[12,21],[-105,176],[-136,-42],[-37,271],[80,92],[55,208],[93,108],[-28,133],[18,92],[-41,45],[37,117],[-8,19],[9,327],[32,96],[46,8],[9,26],[32,209],[-230,99],[-55,-286],[-242,12],[-86,-35],[-27,-21],[-34,15],[-42,-6],[-20,90],[-22,-7],[-13,59],[23,6],[-24,104],[-54,173],[-108,-29],[-34,126],[-37,33],[42,118],[15,42],[-284,316],[-75,-20],[-26,91],[-75,-21],[-41,133],[25,9],[-55,229],[-88,-25],[-45,-13],[18,-55],[-197,-71],[-82,169],[-110,390],[-206,152],[-246,-45],[-333,313],[54,57],[-99,277],[-4,27],[19,73],[-81,103],[-117,123],[-41,133],[-169,106],[-50,99],[63,31],[-20,34],[-52,23],[7,69],[35,7],[7,45],[23,13],[45,75],[80,95],[72,39],[20,-57],[251,177],[75,-152],[53,44],[20,1],[77,-48],[19,43],[114,-81],[54,-30],[112,-31],[80,10],[79,87],[23,37],[96,117],[18,79],[-26,25],[33,32],[-6,38],[28,14],[130,-79],[104,-15],[47,-25],[24,-30],[244,-214],[92,-52],[29,-40],[63,-78],[44,-40],[47,13],[40,62],[3,68],[24,55],[82,19],[70,-52],[32,1],[33,39],[22,83],[60,24],[50,42],[49,196],[53,28],[13,24],[-47,30],[17,78],[-7,22],[201,-27],[-76,421],[156,230],[80,-26],[491,131],[100,-146],[185,-88],[16,131],[126,28],[34,-131],[51,-23],[170,-25],[150,34],[52,29],[68,-169],[135,-29],[36,-18],[30,101],[51,-17],[63,56],[22,39],[51,2],[34,140],[38,215],[41,-7],[133,35],[13,-50],[23,-15],[12,8],[96,-4],[33,45],[28,11],[-43,130],[25,46],[-8,110],[83,33],[29,43],[24,37],[-11,199],[-6,9],[26,137],[31,159],[58,-13],[17,84],[36,22],[83,-29],[77,-6],[132,-27],[46,-32],[76,32],[-40,62],[81,169],[50,77],[8,82],[24,10],[-123,232],[-71,11],[-57,-7],[-9,62],[-73,170],[92,301],[-11,52],[36,38],[54,-5],[23,72],[23,10],[43,71],[-8,28],[64,98],[36,71],[-79,33],[-35,40],[34,74],[0,26],[42,144],[62,96],[30,31],[27,-22],[77,21],[31,-11],[73,70],[77,-46],[16,-42],[162,-56],[14,31],[13,83],[14,72],[31,36],[61,15],[54,30]],[[6871,27619],[78,86],[5,57],[-75,-6],[-66,101],[1,41],[-22,68],[38,56],[98,-65],[108,63],[84,-37],[36,-51],[30,18],[17,56],[54,38],[1,62],[21,22],[0,41],[54,23],[51,59],[6,59],[-9,46],[-24,69],[-76,47],[-108,113],[-49,9],[-4,58],[36,100],[19,-8],[92,77],[26,110],[29,41],[17,72],[-3,109],[-12,146],[23,28],[67,6],[20,71],[59,13],[52,44],[70,3],[70,32],[20,21],[63,6],[47,75],[-13,93],[14,54],[63,15],[-41,165],[-26,-4],[-22,46],[-10,80],[9,83],[43,49],[187,4],[14,54],[54,43],[7,37],[53,75],[76,-19],[33,60],[17,60],[-31,21],[-50,8],[14,91],[34,52],[-1,61],[19,49],[48,15],[-27,42],[-26,76],[-3,53],[-93,18],[-70,123],[-7,59],[79,11],[47,26],[72,12],[12,60],[22,30],[52,22],[-10,22],[53,27],[-20,44],[88,61],[-22,69],[78,146],[147,60],[123,36],[108,-29],[11,10],[-21,54],[17,63],[-4,38],[52,61],[1,59],[59,231],[39,93],[71,21],[8,35],[46,-15],[52,67],[61,22],[8,180],[-8,122],[-66,33],[28,140],[30,37],[44,88],[5,36],[57,67],[30,6],[45,66],[2,53],[-55,56],[0,30],[41,18],[19,62],[25,93],[12,77],[57,74],[17,54],[35,36],[54,104],[13,85],[54,61],[29,68],[-7,48],[39,20],[45,-5],[50,60],[78,-10],[21,-17],[48,29],[47,-5],[27,-35],[73,-11],[41,103],[21,27],[30,90],[41,106],[3,40],[-32,61],[33,43],[-56,136],[40,78],[-69,33],[-78,194],[-2,68],[21,68],[11,96],[21,34],[15,60],[31,75],[91,118],[33,63],[94,-98],[57,82],[-97,82],[19,36],[85,60],[39,44],[44,-11],[23,-34],[38,32],[31,55],[8,42],[53,29],[35,39],[36,77],[23,16],[1,72],[59,8],[37,-30],[83,-22],[64,-6],[33,25],[25,52],[12,57],[30,25],[27,115],[3,48],[34,84],[25,170],[48,-9],[54,60],[13,71],[-4,43],[16,70],[-14,17],[48,98],[62,17],[72,-1],[28,28],[20,141],[-17,34],[31,125],[12,-1],[109,-15],[121,109],[33,8],[33,10],[20,106],[-21,100],[41,8],[36,-15],[87,-93],[5,-19],[63,-35],[186,-33],[28,20],[97,-8],[7,-39],[108,-13],[-1,39],[-24,44],[7,40],[33,68],[49,272],[40,103],[112,18],[84,53],[41,-46],[300,-218],[56,-85],[79,0],[282,-6],[21,45],[76,-5],[51,40],[57,-15],[78,25],[36,46],[45,11],[37,-3],[45,71],[42,117],[36,60],[-10,31],[57,50],[3,42],[6,54],[27,24],[47,11],[43,-23],[83,-11],[64,3],[57,58],[47,15],[20,84],[-28,67],[2,33],[-40,10],[-24,26],[37,105],[-59,68],[-8,39],[37,22],[90,-1],[26,11],[67,-12],[67,53],[51,22],[54,58],[49,20],[84,-11],[55,75],[9,35],[31,18],[19,62],[35,31],[1,36],[44,69],[28,7],[10,62],[81,27],[38,50],[36,-20],[92,15],[90,90],[-26,126],[0,55],[-26,90],[-73,29],[-10,47],[3,65],[30,42],[100,-23],[93,-77],[16,32],[87,-16],[-6,-28],[59,-14],[51,-37],[6,-48],[55,-3],[43,-45],[62,9],[37,79],[155,28],[50,40],[52,8],[50,-36],[46,6],[6,44],[34,51],[-44,6],[-3,27],[52,45],[41,55],[20,72],[-47,24],[-18,29],[82,90],[-32,87],[4,32],[38,23],[24,64],[18,-5],[15,52],[-56,40],[27,36],[50,20],[18,30],[61,15],[33,23],[26,108],[36,27],[50,6],[67,41],[24,-23],[3,-49],[27,-2],[17,-127],[270,-53],[37,20],[26,-20],[32,81],[93,-6],[5,-120],[15,-26],[53,-18],[41,-61],[-32,-118],[-29,-44],[14,-9],[51,-90],[34,-22],[63,-12],[47,17],[56,-43],[24,-40],[34,-22],[-22,-66],[20,-51],[38,-21],[60,22],[50,-58],[94,-40],[30,-61],[52,11],[43,-33],[50,-17],[-11,-35],[20,-29],[72,-48],[33,21],[62,14],[21,-56],[52,-28],[22,-42],[68,-25],[76,2],[34,-8],[77,-49],[43,8],[25,108],[41,45],[28,65],[24,18],[1,46],[25,46],[1,73],[18,64],[42,-39],[26,-51],[65,-13],[85,-49],[67,21],[43,-16],[48,43],[63,-19],[35,16],[78,-49],[65,3],[43,-30],[18,-68],[94,-54],[19,-23],[48,23],[72,7],[131,66],[37,-46],[33,6],[6,46],[47,-13],[84,22],[63,2],[48,-30],[56,19],[116,-82],[50,6],[98,-42],[26,-27],[-15,-41],[89,-69],[-10,-57],[63,-110],[-5,-44],[50,-63],[76,-47],[19,4],[99,110],[59,-12],[19,17],[92,21],[45,-17],[52,32],[69,-3],[18,36],[21,83],[50,32],[51,-22],[44,48],[25,-4],[15,-70],[61,32],[35,-11],[42,40],[29,8],[96,-94],[37,-70],[104,37],[73,0],[52,-58],[67,-33],[94,-62],[4,-56],[61,-131],[48,-10],[81,5],[38,-32],[38,9],[28,35],[61,-17],[28,49],[96,-49],[88,10],[28,-41],[43,-24],[50,-56],[7,-47],[57,-10],[70,26],[89,67],[58,8],[82,-14],[74,47],[32,3],[35,51],[32,11],[39,44],[52,25],[57,-74],[58,-28],[32,8],[108,70],[76,30],[-8,67],[69,132],[1,40],[102,66],[43,-4],[69,74],[40,25],[64,-57],[100,-23],[45,12],[94,-65],[39,-4],[44,-29],[67,13],[79,72],[58,3],[73,-18],[78,79],[73,-11],[46,-23],[5,-38],[50,-37],[52,-103],[53,59],[74,0],[29,-35],[23,-75],[-15,-48],[39,-43],[-8,-47],[96,-50],[6,-77],[49,-16],[75,-114],[-38,-97],[5,-41],[-14,-43],[30,-102],[8,-20],[55,-26],[20,-47],[103,-24],[17,-112],[82,-8],[85,42],[28,-25],[9,-39],[71,-65],[32,67],[40,21],[75,-18],[4,-56],[31,-71],[78,11],[176,-38],[-26,-71],[-10,-59],[70,-78],[18,-37],[6,-66],[-7,-62],[87,-44],[20,-37],[3,-44],[133,-120],[19,-125],[30,-46],[-20,-87],[106,4],[267,40]],[[27991,32038],[-81,-49],[-24,18],[-66,-63],[-10,-62],[-78,-65],[-117,-14],[-31,20],[-39,53],[-49,-45],[-45,14],[-38,32],[-56,8],[-30,-20],[-47,-102],[-1,-39],[-51,-54],[-61,17],[-48,38],[-48,-15],[-13,42],[-27,30],[-166,-33],[-5,-16],[-84,-62],[-49,-65],[-44,-80],[-100,-84],[-39,-79],[-42,-48],[-78,-57],[-57,-110],[-8,-69],[-36,-126],[-2,-37],[-54,-115],[-32,-47],[-54,-1],[-58,-87],[-16,-50],[-1,-67],[29,-9],[-30,-110],[-39,-24],[46,-36],[-41,-54],[-9,-45],[-63,-93],[31,-32],[51,-24],[40,-49],[50,-60],[18,-41],[-51,-36],[-100,50],[-20,-69],[-93,-15],[-35,23],[-69,35],[-49,-10],[-66,21],[-54,4],[-54,60],[-32,5],[35,55],[-79,20],[28,107],[-36,6],[1,67],[-64,33],[-28,-54],[-82,12],[-48,34],[-39,-28],[-23,-89],[-26,-57],[-40,-27],[39,-44],[-5,-54],[-68,1],[-46,-26],[14,-27],[-43,-37],[-74,-4],[-85,17],[-5,-71],[49,-67],[-48,-95],[40,-52],[-22,-19],[-63,-190],[-84,-20],[-27,-39],[-10,-59],[-58,14],[-22,-44],[-62,-50],[-58,-26],[-28,-53],[-37,-19],[31,-77],[-41,-55],[-1,-41],[-40,-101],[44,-40],[19,35],[39,-3],[31,-57],[-47,-58],[-50,-83],[-20,-15],[-59,19],[-26,29],[-29,-9],[-11,49],[-29,8],[-10,-38],[-51,10],[-35,-10],[-6,-40],[-28,-19],[-24,-76],[23,-27],[-13,-34],[-73,7],[-26,-38],[-63,14],[-65,-21],[-131,103],[-37,-3],[-52,-29],[-51,37],[-41,-1],[-43,-45],[-55,44],[-15,15],[-70,10],[-98,54],[-5,17],[-112,55],[-90,56],[-38,3],[-19,31],[11,31],[-45,28],[-67,82],[-92,22],[-14,21],[49,-106],[-38,-47],[-70,-26],[-11,-35],[-109,-11],[-82,-45],[-46,10],[-50,-16],[-17,-53],[31,-128],[31,-73],[-64,-35],[-68,57],[-37,0],[-54,42],[-24,-37],[7,-29],[-61,-8],[-47,-109],[24,-22],[75,-116],[10,-41],[29,-28],[74,-20],[63,1],[4,-35],[55,-53],[-55,-46],[7,-43],[-12,-51],[-48,-125],[-16,-75],[-51,-1],[-5,-39],[-48,15],[-86,-32],[-34,10],[-30,-49],[-71,-20],[-77,-34],[7,-28],[-18,-76],[-28,-48],[-38,-5],[34,-94],[94,-42],[35,-31],[94,-3],[26,-38],[-8,-36],[1,-24],[-43,-68],[-14,-71],[-31,-75],[0,-120],[-27,-31],[-61,-10],[46,-112],[-12,-11],[-52,-15],[-30,-80],[-56,-19],[-35,14],[-61,76],[-78,18],[-27,-20],[-90,-141],[-15,-48],[-47,-44],[51,-71],[14,-44],[-35,-39],[55,-150],[-62,-51],[28,-35],[9,-87],[18,-41],[47,-3],[-6,-44],[61,-6],[87,-95],[-34,-48],[-80,-55],[-36,0],[-88,51],[-61,83],[-42,30],[-135,3],[-44,51],[-35,79],[-79,-25],[-5,24],[-50,0],[7,-38],[-70,-53],[25,-31],[-69,-24],[-24,34],[-4,54],[-49,-56],[-29,35],[-41,79],[-30,24],[-52,10],[-22,-39],[-66,32],[-70,-7],[-72,-23],[12,-28],[-55,-17],[-58,37],[-40,-2],[-54,-42],[-63,10],[-44,-46],[-44,-18],[-69,16],[-103,38],[-46,-12],[-92,-60],[-19,-56],[-31,-39],[22,-86],[-37,4],[-88,-22],[24,-31],[2,-50],[66,-32],[26,30],[58,-91],[-40,-10],[-38,-37],[-39,-60],[-106,58],[-77,10],[-86,55],[-18,30],[-51,17],[-2,105],[-34,66],[-29,18],[-3,81],[-14,41],[5,62],[32,21],[45,97],[-16,76],[73,6],[-11,46],[-47,38],[-41,-5],[-70,68],[-55,24],[-31,-45],[-35,-2],[-21,-34],[-26,40],[-37,101],[-73,-46],[-39,1],[8,-65],[-45,-52],[-50,65],[-71,29],[-26,-11],[-63,42],[-145,44],[-45,117],[32,73],[-41,18],[-80,-37],[-28,45],[-44,14],[-26,-23],[-50,22],[-78,9],[-51,82],[-56,9],[-85,-27],[-54,-30],[-23,-28],[-45,19],[-35,-30],[-32,23],[-30,-41],[-81,-26],[-66,-2],[-37,47],[-43,-11],[-52,9],[-26,-34],[13,-125],[56,-33],[-41,3],[-57,-48],[-18,-56],[-77,11],[-47,-11],[-67,-63],[-48,16],[-64,-20],[-129,19],[-21,16],[-40,139],[-107,-36],[-23,16],[-36,-23],[-28,12],[-47,-26],[-36,-67],[-32,-37],[-77,-41],[-64,42],[-27,-22],[7,-38],[-29,-46],[-12,-85],[-66,-40],[-66,10],[-34,29],[-71,-6],[-8,-33],[-48,15],[-6,81],[40,72],[-7,27],[21,40],[-93,49],[-40,38],[-56,-17],[-38,11],[-41,40],[-15,27],[17,49],[-23,92],[-26,27],[-5,67],[-68,31],[63,96],[1,38],[-57,18],[-71,-53],[-26,-2],[-31,0],[-137,62],[-81,-2],[-49,-17],[-81,-81],[-37,-3],[-39,-49],[-46,-3],[-28,-22],[-68,27],[-68,10],[-21,96],[-47,-42],[-41,5],[-28,0],[-68,66],[-70,31],[-10,60],[8,47],[-116,-20],[-36,-5],[-19,50],[-76,32],[-40,0],[-62,-55],[16,-56],[3,-90],[-24,-35],[-62,-3],[-85,-18],[-24,-52],[-108,-89],[-18,-60],[-62,-58],[-74,44],[6,-61],[-19,-91],[28,-129],[-42,-26],[2,-36],[-52,-53],[71,4],[22,-35],[-14,-71],[33,-26],[18,-66],[38,-48],[-26,-106],[30,-34],[59,-34],[96,-29],[-135,-104],[-61,-69],[-44,-7],[-13,-49]]],"transform":{"scale":[0.00017149246560347912,0.00010979391682322836],"translate":[20.263081077403246,43.61901922041906]},"objects":{"ro_admin_region_simplified_polygon":{"type":"GeometryCollection","geometries":[{"arcs":[[0,1,2,3]],"type":"Polygon","properties":{"id":1,"regionId":1,"regionCode":813,"name":"Nord-Est","version":"2025-03-26"}},{"arcs":[[4,5,-4,6]],"type":"Polygon","properties":{"id":2,"regionId":2,"regionCode":822,"name":"Sud-Est","version":"2025-03-26"}},{"arcs":[[7,8,-5,9],[10]],"type":"Polygon","properties":{"id":3,"regionId":3,"regionCode":831,"name":"Sud","version":"2025-03-26"}},{"arcs":[[11,12,-8,13]],"type":"Polygon","properties":{"id":4,"regionId":4,"regionCode":840,"name":"Sud-Vest","version":"2025-03-26"}},{"arcs":[[14,15,-12,16]],"type":"Polygon","properties":{"id":5,"regionId":5,"regionCode":859,"name":"Vest","version":"2025-03-26"}},{"arcs":[[-15,17,-2,18]],"type":"Polygon","properties":{"id":6,"regionId":6,"regionCode":868,"name":"Nord-Vest","version":"2025-03-26"}},{"arcs":[[-13,-16,-19,-1,-6,-9]],"type":"Polygon","properties":{"id":7,"regionId":7,"regionCode":877,"name":"Centru","version":"2025-03-26"}},{"arcs":[[-11]],"type":"Polygon","properties":{"id":8,"regionId":8,"regionCode":886,"name":"București-Ilfov","version":"2025-03-26"}}]}}}