{"type":"Topology","arcs":[[[36373,4355],[-29,-39],[-57,-19],[-43,-13],[-85,2],[-85,21],[-82,12],[-48,52],[-57,45],[-100,58],[-55,17],[-60,-2],[-111,-30],[-63,-32],[-51,-1],[-100,23],[-99,77],[-64,-10],[-58,-20],[-125,-62],[-40,-2],[-93,18],[-37,4],[-109,-25],[-64,-7],[-84,11],[-72,-22],[-122,-88],[-116,-46],[-62,-36],[-75,-69],[-223,-157],[-29,-24],[-79,-39],[-203,-45],[0,16],[-81,14],[-93,-15],[-64,-30],[-79,-52],[5,-18],[-108,-24],[-29,0],[-119,-34],[-113,-52],[-116,34],[-170,3],[-100,-22],[-85,-44],[-81,-22],[-150,-49],[4,-20],[-69,-20],[-55,-6],[-46,21],[-101,16],[-35,24],[-102,24],[-46,-8],[-99,-40],[-53,-31],[-151,-53],[-42,-9],[-131,-130],[-141,-84],[-63,-22],[-69,-46],[-170,-84],[-74,-7],[-3,15],[-113,3],[-57,-10],[-114,-52],[-69,-51],[-51,-76],[-47,-92],[11,-12],[-50,-60],[-73,-107],[-23,-54],[-38,-51],[-32,-86],[-55,-76],[-53,-37],[-103,-60],[-60,-52],[-9,14],[-82,-80],[-38,-52],[-86,-55],[-40,-36],[-65,-65],[-57,-95],[-53,-106],[-22,-89],[-21,-56],[-39,-26],[-82,-117],[-30,-76],[16,-24],[-153,-195],[-47,-38],[-55,-28],[-60,-28],[-12,15],[-81,-87],[-24,-42],[-46,-140],[-65,-87],[-112,-72],[-87,-60],[-39,-20],[-79,-22],[-2,13],[-92,4],[-151,-6],[-35,-13],[-85,-63],[-39,-52],[-89,-35],[-74,-45],[-108,-86],[-95,-87],[-54,-25],[-83,-11],[-95,17],[-88,0],[-6,17],[-164,-55],[-86,-64],[-50,-23],[2,-17],[-79,-16],[-152,-51],[-85,-14],[-36,4],[-52,24],[-26,-5],[-89,42],[-60,44],[-89,105],[-78,52],[-103,52],[-13,26],[-68,89],[-22,42],[-81,73],[-32,14],[-123,32],[-135,45],[-37,18],[-85,35],[-152,-58],[-34,1],[-24,-22],[-111,-48],[-79,4],[-59,22],[-91,18],[-71,21],[-33,21],[-108,126],[-57,39],[-27,73],[-25,25],[-37,18],[-136,7],[-67,15],[-45,-3],[-31,-7],[-61,-46],[0,-63],[-49,1],[-125,-41],[-107,-39],[-79,-8],[-41,8],[-102,50],[-64,6],[-75,-18],[-54,-29],[-138,-114],[-105,-65],[-94,-17],[-72,25],[-82,50],[-111,96],[-137,161],[-85,90],[-92,71],[-64,32],[-112,44],[-98,32],[-58,0],[-182,44],[-60,22],[2,20],[-78,-30],[-160,-106],[-110,-62],[-9,23],[-148,-49],[-51,-27],[-55,-71],[-5,-20],[-61,-48],[-18,-33],[12,-26],[-62,-43],[-78,-70],[-32,-19],[-38,-2],[-122,30],[-136,-23],[-165,-45],[-23,-12],[-87,-10],[-103,-40],[-62,-2],[-58,-12],[-49,-14],[-68,3],[-76,25],[-68,44],[-115,57],[-56,20],[-137,22],[-74,76],[-14,35],[-73,48],[-134,57],[-52,16],[-161,90],[-67,25],[-87,23],[-170,-1],[-84,27],[-191,42],[-90,36],[-40,30],[-91,44],[6,15],[-68,33],[-44,35],[-39,2],[-111,35],[-87,53],[-79,132],[-109,3],[-76,17],[-70,5],[-30,-13],[-47,3],[-114,-32],[-114,-45],[-122,-23],[-89,30],[-41,21],[-66,-1],[-68,31],[-29,35],[-98,62],[-102,96],[9,13],[-54,55],[-40,24],[-50,5],[-90,29],[-85,20],[-87,55],[-74,35],[-94,19],[-128,-20],[-89,-25],[-111,13],[-83,8],[-79,-1],[-110,-15],[-167,-11],[-46,-21],[-64,-45],[-40,-18],[-51,3],[-84,-38],[-51,-33],[-68,-32],[-77,-38],[-193,-114],[-57,-27],[-244,-48],[-26,-15],[-96,-14],[-71,5],[-73,63],[-112,16],[-114,35],[-6,-20],[-48,11],[-87,40],[-29,0],[-23,49],[-75,40],[-109,13],[-95,32],[-111,54],[-36,28],[-71,105],[-53,115],[-4,77],[-17,44],[-2,76],[49,151],[75,170],[7,77],[-17,8],[42,119],[26,159],[28,133],[68,88],[93,23],[100,59],[213,62],[5,-24],[41,6],[132,41],[31,20],[34,44],[-14,17],[48,63],[39,65],[38,80],[40,114],[2,47],[-8,40],[-37,99],[-67,85],[-58,37],[-113,35],[-144,7],[-145,10],[-54,21],[-138,108],[-98,111],[-48,47],[-119,81],[-39,34],[-142,64],[-89,79],[-73,76],[-170,224],[-68,27],[-95,17],[-52,1],[-71,12],[-44,30],[-65,76],[-9,48],[11,92],[55,155],[4,122],[-33,111],[-36,47],[-140,77],[-42,11],[-102,-4],[-63,19],[-58,30],[-82,39],[-76,17],[-42,52],[-40,96],[-94,101],[-31,42],[-37,164],[-43,136],[-24,55],[-15,90],[-11,186],[15,40],[-107,133],[-48,36],[-40,69],[-13,68],[-21,55],[-9,94],[26,64],[25,19],[43,8],[117,-26],[106,-51],[38,8],[125,78],[36,70],[27,132],[0,132],[13,109],[50,90],[50,50],[96,24],[74,2],[61,-21],[43,-33],[41,-14],[40,-48],[23,-25],[153,-140],[40,-22],[38,-4],[64,24],[99,66],[148,82],[21,29],[4,63],[-13,67],[-26,60],[-116,173],[-129,170],[-88,27],[-49,31],[-30,76],[-47,15],[-147,-39],[-68,-5],[-44,12],[-88,58],[-108,86],[-61,42],[-49,99],[-78,107],[-33,23],[-17,35],[-56,73],[-49,49],[-29,67],[-71,70],[-84,101],[-53,34],[-13,5],[-14,6],[-164,-41],[-59,-33],[-58,-86],[-59,-100],[-45,-46],[-31,-26],[-83,-35],[-55,4],[-94,33],[-39,-11],[-67,-87],[-54,-55],[-26,-48],[-5,-75],[-17,-54],[-129,-110],[-20,-147],[-31,-104],[-46,-77],[-76,-142],[-57,-81],[-83,-215],[-30,-96],[-31,-74],[-38,-59],[-27,-101],[7,-46],[-21,-68],[-22,-34],[-52,-43],[-143,-28],[-44,2],[-47,20],[-24,26],[-175,151],[-70,81],[-15,65],[2,62],[-30,75],[-60,63],[-77,62],[-33,52],[-38,119],[-13,85],[6,139],[-10,41],[-45,46],[-55,68],[-36,184],[-47,45],[-95,-5],[-107,18],[-52,27],[-106,73],[-31,7],[-85,-23],[-50,5],[-106,41],[-47,5],[-87,30],[-65,-26],[-70,-8],[-34,13],[-69,96],[-26,9],[-106,-25],[-141,-50],[-79,-16],[-52,3],[-33,17],[-83,68],[-39,13],[-69,-2],[-120,-40],[-60,-9],[-44,17],[-65,66],[-44,149],[-4,116],[23,117],[-32,157],[-21,56],[-71,151],[-19,24],[-122,74],[-126,45],[-47,7],[-139,-16],[-231,50],[-71,-15],[-57,2],[-55,-18],[-51,6],[-82,34],[-36,42],[-14,50],[-23,141],[-45,88],[-57,41],[-37,14],[-10,47],[41,18],[-53,78],[22,48],[-3,52],[48,127],[21,18],[64,-12],[23,38],[46,-27],[52,1],[48,51],[57,-12],[24,-25],[22,23],[28,-12],[21,33],[49,1],[50,-53],[18,24],[62,6],[28,-21],[19,27],[25,-2],[70,42],[21,33],[113,21],[143,56],[-14,136],[4,16],[-38,79],[10,69],[-32,58],[-110,77],[-30,-13],[-68,54],[-88,45],[-106,77],[-124,32],[-38,-14],[-163,155],[41,71],[-50,26],[8,23],[-95,48],[-28,33],[-118,159],[71,67],[88,-10],[48,28],[26,39],[37,14],[73,-8],[155,43],[-30,101],[-16,23],[18,54],[23,18],[26,80],[69,92],[7,26],[45,44],[-12,36],[-30,29],[-29,50],[26,61],[19,82],[48,36],[42,-7],[39,30],[126,85],[8,81],[-8,31],[-20,72],[-37,82],[-122,41],[-50,153],[-22,15],[-111,48],[-99,36],[-43,90],[-98,71],[-4,28],[-40,38],[-41,-90],[-133,63],[-50,-35],[-84,84],[-23,35],[-36,-11],[-65,24],[-77,16],[-67,26],[-89,-110],[-95,86],[-7,17],[-168,100],[-25,-21],[-83,126],[31,85],[-62,60],[-29,44],[-8,58],[-51,160],[19,33],[0,40],[-42,37],[-48,-48],[-23,47],[-63,-79],[24,-31],[-50,-65],[-86,-1],[-43,-22],[-52,-12],[-68,-42],[-81,189],[-52,-23],[-51,6],[12,139],[-176,-51],[-47,-9],[-21,-3],[-35,143],[-54,3],[-63,74],[-30,61],[-64,57],[-47,25],[-49,69],[-13,93],[-89,10],[-6,48],[28,3],[-21,80],[-39,45],[-19,86],[-103,-3],[-132,78],[-54,50],[6,30],[50,33],[-7,63],[36,-2],[-18,35],[7,32],[-44,17],[4,35],[-26,46],[-33,9],[-140,117],[-322,0],[1,70],[30,21],[-43,83],[185,125],[15,10],[109,157],[24,16],[-69,125],[19,13],[-62,120],[12,19],[-94,167],[-122,-40],[-32,257],[71,86],[49,197],[83,102],[-25,126],[16,86],[-36,44],[32,110],[-7,18],[8,309],[29,91],[41,8],[8,24],[29,198],[-206,93],[-49,-270],[-215,11],[-77,-33],[-25,-20],[-29,14],[-38,-5],[-18,84],[-20,-5],[-11,55],[20,6],[-21,98],[-48,163],[-96,-27],[-30,120],[-34,31],[38,111],[13,40],[-253,299],[-67,-20],[-23,87],[-67,-20],[-36,126],[21,8],[-49,217],[-78,-24],[-40,-12],[16,-52],[-176,-67],[-73,160],[-98,368],[-184,144],[-219,-42],[-297,296],[49,54],[-89,261],[-4,26],[18,68],[-73,98],[-104,117],[-37,125],[-150,101],[-45,92],[56,31],[-18,31],[-46,22],[6,65],[31,7],[6,43],[22,12],[39,71],[72,90],[64,36],[18,-54],[223,168],[67,-144],[47,42],[19,1],[68,-46],[17,41],[102,-77],[48,-28],[99,-29],[72,9],[71,83],[20,34],[86,111],[16,75],[-24,24],[30,30],[-5,36],[24,13],[116,-75],[93,-14],[42,-23],[22,-29],[217,-202],[82,-49],[26,-38],[56,-74],[40,-38],[41,12],[36,59],[3,65],[21,51],[73,19],[62,-50],[29,1],[29,37],[20,78],[53,23],[45,40],[44,185],[47,26],[12,23],[-42,29],[15,74],[-6,20],[179,-25],[-67,397],[139,218],[71,-24],[437,123],[90,-138],[164,-83],[15,125],[112,25],[31,-123],[45,-22],[151,-24],[135,33],[45,27],[61,-160],[121,-27],[32,-17],[27,95],[45,-16],[56,53],[20,36],[45,2],[31,133],[33,204],[37,-7],[119,33],[11,-47],[21,-15],[10,8],[86,-3],[29,42],[25,10],[-38,123],[23,43],[-7,105],[74,30],[25,41],[22,35],[-11,188],[-5,10],[24,129],[27,150],[52,-12],[15,79],[32,21],[75,-27],[68,-6],[118,-26],[40,-30],[68,30],[-35,59],[72,160],[44,72],[8,78],[21,10],[-110,219],[-63,10],[-51,-7],[-8,60],[-64,160],[81,284],[-10,50],[33,36],[48,-5],[20,68],[21,10],[38,67],[-7,26],[57,93],[32,67],[-71,31],[-30,38],[29,70],[1,25],[37,135],[55,91],[27,30],[25,-21],[68,19],[28,-9],[65,65],[69,-43],[14,-39],[144,-54],[13,30],[11,78],[13,68],[27,34],[55,14],[48,29],[69,81],[5,54],[-67,-6],[-59,96],[1,39],[-20,64],[35,53],[86,-61],[97,59],[75,-35],[32,-48],[27,17],[15,53],[48,36],[1,58],[19,22],[0,38],[48,22],[45,55],[5,57],[-7,42],[-22,66],[-67,45],[-97,106],[-44,9],[-3,55],[32,94],[17,-7],[82,72],[23,105],[26,39],[15,68],[-3,102],[-10,139],[20,26],[60,5],[18,68],[53,12],[46,42],[63,2],[61,30],[18,21],[57,6],[42,70],[-12,88],[13,51],[55,15],[-36,155],[-23,-3],[-19,43],[-10,76],[8,79],[39,46],[167,3],[12,52],[48,40],[7,35],[46,71],[69,-18],[28,57],[16,56],[-28,20],[-44,8],[12,86],[31,49],[-1,58],[17,46],[43,14],[-25,40],[-23,71],[-2,51],[-84,17],[-62,116],[-6,56],[70,11],[42,24],[65,12],[10,56],[20,28],[46,21],[-9,21],[48,26],[-18,41],[78,58],[-19,66],[69,137],[131,57],[110,34],[96,-27],[10,9],[-19,51],[16,60],[-4,36],[46,57],[1,56],[53,219],[35,88],[63,19],[7,33],[41,-14],[46,63],[54,22],[8,169],[-8,116],[-58,31],[25,132],[27,36],[39,82],[4,35],[51,63],[27,6],[40,62],[2,50],[-49,53],[0,29],[37,17],[16,58],[22,88],[11,73],[51,70],[15,51],[31,34],[49,98],[11,81],[49,58],[25,63],[-6,46],[35,19],[40,-5],[44,57],[70,-10],[19,-15],[43,27],[42,-5],[23,-33],[66,-11],[36,98],[19,26],[27,85],[36,100],[2,38],[-28,57],[29,41],[-49,129],[35,74],[-61,31],[-70,183],[-2,64],[20,64],[9,92],[19,32],[13,57],[27,70],[82,112],[30,59],[83,-92],[51,77],[-86,77],[17,35],[75,57],[35,41],[39,-11],[21,-31],[34,30],[27,51],[8,41],[47,27],[31,37],[32,73],[21,15],[0,68],[53,8],[33,-29],[74,-20],[57,-6],[29,23],[23,49],[11,54],[26,24],[24,108],[4,46],[29,79],[23,161],[42,-9],[49,57],[12,68],[-4,40],[14,66],[-12,16],[42,93],[56,16],[64,-1],[25,27],[18,133],[-15,32],[27,119],[10,-2],[98,-14],[108,104],[29,7],[30,9],[18,101],[-19,94],[36,8],[32,-15],[78,-87],[5,-18],[56,-34],[166,-31],[25,19],[86,-8],[6,-37],[97,-12],[-2,37],[-21,42],[7,38],[28,64],[44,257],[37,97],[99,18],[75,50],[36,-44],[268,-205],[50,-81],[70,0],[252,-6],[18,43],[69,-5],[44,38],[52,-15],[69,24],[32,44],[40,10],[33,-3],[40,67],[38,111],[32,57],[-9,29],[51,48],[2,39],[6,51],[25,23],[41,11],[38,-22],[75,-11],[57,3],[50,55],[42,14],[18,79],[-25,64],[2,31],[-36,9],[-21,25],[33,99],[-53,64],[-7,38],[33,20],[80,-1],[24,10],[59,-10],[60,49],[45,22],[49,54],[43,19],[75,-11],[49,72],[8,32],[28,18],[17,58],[31,29],[1,35],[39,64],[25,8],[9,58],[73,26],[33,47],[32,-19],[83,14],[79,85],[-23,120],[0,52],[-23,84],[-65,28],[-9,44],[3,62],[26,40],[90,-22],[83,-73],[14,30],[77,-15],[-4,-26],[52,-13],[46,-36],[5,-44],[49,-4],[38,-43],[55,9],[34,75],[137,26],[45,38],[47,7],[45,-33],[40,5],[5,42],[31,48],[-39,6],[-3,26],[46,42],[36,52],[19,68],[-43,22],[-15,29],[73,84],[-29,82],[4,31],[34,21],[21,61],[16,-5],[14,49],[-50,39],[23,33],[45,19],[16,29],[54,14],[30,21],[23,103],[32,25],[45,6],[60,38],[21,-21],[3,-46],[24,-3],[15,-119],[241,-50],[33,19],[23,-19],[28,76],[84,-6],[4,-113],[13,-24],[48,-18],[36,-57],[-28,-112],[-27,-42],[13,-8],[45,-85],[31,-21],[56,-12],[42,17],[50,-41],[22,-38],[30,-20],[-20,-63],[18,-48],[34,-20],[53,21],[45,-55],[83,-38],[27,-58],[47,11],[38,-32],[45,-15],[-10,-34],[18,-27],[64,-45],[29,20],[55,13],[20,-53],[46,-27],[19,-40],[61,-23],[67,2],[31,-7],[69,-47],[38,7],[22,103],[37,43],[25,61],[21,17],[2,44],[21,43],[1,68],[17,62],[37,-38],[23,-48],[58,-12],[76,-47],[59,20],[39,-14],[43,40],[56,-18],[31,15],[70,-46],[57,2],[39,-27],[16,-65],[84,-51],[17,-22],[43,22],[64,6],[116,63],[34,-43],[29,5],[5,44],[42,-13],[75,21],[56,2],[44,-28],[49,17],[104,-77],[44,6],[88,-40],[23,-26],[-14,-38],[80,-65],[-9,-55],[56,-104],[-5,-41],[45,-59],[68,-45],[17,4],[88,104],[53,-12],[17,16],[81,21],[41,-16],[47,30],[61,-3],[16,34],[18,79],[45,30],[46,-21],[39,45],[22,-4],[13,-66],[55,30],[31,-10],[37,38],[27,7],[85,-88],[33,-67],[93,36],[65,0],[46,-55],[60,-32],[83,-59],[4,-52],[55,-125],[43,-8],[72,4],[34,-30],[34,8],[24,33],[54,-16],[26,46],[85,-45],[79,9],[25,-39],[38,-23],[45,-52],[6,-45],[51,-10],[63,25],[78,64],[52,7],[74,-14],[66,45],[28,3],[31,48],[29,11],[34,41],[47,24],[51,-70],[52,-26],[28,7],[96,66],[68,29],[-7,63],[62,125],[0,37],[91,63],[39,-3],[61,69],[36,24],[57,-55],[89,-21],[41,12],[83,-62],[35,-4],[39,-27],[60,12],[70,68],[52,3],[65,-17],[69,74],[65,-10],[42,-22],[4,-35],[44,-36],[47,-97],[48,56],[65,0],[26,-33],[21,-71],[-13,-46],[34,-40],[-7,-45],[86,-47],[5,-72],[43,-16],[67,-107],[-34,-92],[5,-39],[-13,-41],[27,-96],[7,-19],[50,-24],[17,-45],[93,-23],[14,-106],[73,-7],[76,39],[26,-23],[7,-37],[64,-61],[28,63],[36,19],[67,-16],[3,-53],[28,-68],[69,11],[158,-36],[-24,-67],[-9,-56],[62,-74],[17,-35],[5,-62],[-6,-59],[77,-42],[19,-34],[2,-42],[119,-113],[17,-118],[26,-44],[-17,-82],[94,3],[238,38],[189,3],[68,-37],[54,79],[51,-29],[50,0],[16,-27],[56,-21],[12,52],[40,71],[22,55],[45,-48],[71,43],[30,-2],[33,32],[48,3],[27,31],[64,17],[3,110],[87,111],[46,45],[37,54],[23,-25],[65,14],[27,50],[-4,72],[-17,35],[55,44],[17,63],[-4,34],[86,76],[31,52],[-3,25],[-3,56],[28,36],[79,42],[2,95],[13,27],[-12,57],[36,112],[44,25],[36,-19],[37,16],[33,-26],[22,15],[38,-12],[214,189],[78,-6],[85,7],[23,14],[277,47],[288,53],[239,44],[414,43],[59,6],[173,89],[159,5],[156,-46],[63,12],[98,-39],[18,30],[66,11],[32,-35],[183,-19],[106,50],[87,54],[36,23],[38,84],[60,28],[124,26],[97,-61],[62,-16],[46,18],[37,14],[35,107],[49,0],[85,-13],[60,-43],[121,39],[286,69],[161,40],[60,-19],[136,-60],[11,-5],[84,30],[49,52],[56,-31],[35,15],[140,42],[89,40],[58,108],[45,180],[22,188],[33,33],[70,59],[150,112],[32,18],[44,83],[13,78],[23,48],[13,107],[13,45],[55,131],[48,67],[49,62],[59,38],[33,55],[-3,63],[-30,82],[34,69],[75,-9],[15,71],[30,-56],[21,7],[45,51],[4,35],[35,25],[43,-35],[-36,-50],[40,-16],[34,23],[39,-7],[80,68],[22,42],[24,-13],[68,-50],[1,37],[-32,13],[16,38],[61,-6],[47,19],[24,34],[-20,32],[55,22],[26,35],[27,-37],[41,-2],[47,23],[67,-30],[57,-31],[28,21],[33,-33],[49,40],[54,17],[-10,49],[9,24],[105,-48],[17,35],[-21,56],[12,71],[35,49],[60,16],[44,-64],[63,14],[56,10],[-32,68],[31,19],[43,-33],[9,44],[-2,65],[31,15],[41,-52],[7,-29],[38,17],[43,85],[24,-20],[1,-38],[-17,-39],[26,-54],[84,24],[42,42],[20,76],[45,2],[21,-91],[66,-56],[42,1],[13,32],[-28,56],[29,13],[52,-30],[2,-16],[-46,-56],[36,-11],[67,27],[17,-6],[54,6],[76,-44],[21,14],[15,47],[53,1],[40,36],[49,-48],[6,-27],[50,-14],[15,-79],[-2,-41],[25,-36],[43,20],[20,34],[30,15],[21,-27],[25,-111],[66,-60],[57,-75],[21,-13],[80,11],[26,-26],[-34,-41],[-43,-6],[-3,-44],[41,-57],[40,-18],[52,11],[11,21],[-41,116],[9,17],[81,7],[62,-29],[40,-79],[-23,-68],[-65,-72],[14,-65],[53,-28],[122,13],[83,-42],[32,-61],[-8,-25],[-46,-27],[-70,30],[-45,41],[-40,-22],[-2,-43],[28,-81],[40,-32],[19,-16],[72,-1],[35,-15],[46,-43],[37,1],[65,121],[22,15],[41,-19],[-31,-94],[36,-7],[26,44],[24,-13],[-30,-111],[34,-73],[-17,-76],[-53,-47],[6,-46],[70,-43],[7,-15],[2,-71],[15,-30],[65,-44],[88,-80],[31,-42],[12,-39],[-8,-63],[14,-29],[38,-12],[54,8],[32,-43],[-87,-61],[-13,-103],[12,-25],[36,-11],[86,81],[42,10],[37,-40],[-50,-59],[-21,-40],[34,-59],[61,-16],[161,31],[-36,-70],[-31,-131],[-61,-40],[65,-52],[60,-47],[66,-74],[-142,-220],[255,-167],[47,-452],[109,-93],[66,-7],[27,-24],[-11,-47],[-68,-40],[-29,48],[-22,10],[-36,-51],[-6,-41],[31,-53],[105,12],[1,-35],[-53,-51],[0,-55],[93,-44],[7,-68],[20,-18],[2,-53],[56,21],[15,-112],[-17,-36],[14,-31],[60,37],[33,-60],[-29,-58],[20,-18],[69,29],[-8,-50],[-49,-15],[-27,-75],[28,-50],[38,-7],[-5,-51],[-43,6],[-23,35],[-64,-4],[-3,43],[-36,-17],[-24,-72],[-27,-23],[48,-48],[35,-11],[15,-38],[-5,-38],[15,-35],[62,-2],[-28,-67],[-21,-19],[57,-60],[64,-25],[0,-55],[-14,-44],[4,-50],[52,0],[42,-72],[13,-50],[-4,-40],[42,-43],[45,-82],[43,-32],[99,-39],[21,-24],[6,-49],[37,-109],[49,-55],[58,-33],[69,-57],[33,-3],[71,13],[20,-30],[-62,-79],[27,-73],[58,-8],[-46,-58],[6,-19],[59,-18],[-24,-65],[39,-23],[25,-44],[45,13],[15,-30],[-51,-14],[32,-91],[38,23],[-21,-74],[-6,-67],[17,-31],[51,-37],[1,-53],[23,-30],[23,-45],[79,31],[-1,-40],[20,-40],[46,-10],[16,47],[37,63],[15,-25],[-23,-36],[-3,-62],[27,-20],[20,67],[62,-36],[15,38],[-25,19],[26,38],[24,-15],[8,-80],[18,-30],[48,-31],[13,-46],[36,-23],[25,22],[21,-24],[4,-43],[-28,-76],[-58,-14],[13,-87],[-39,-36],[16,-58],[50,-32],[21,25],[26,-83],[-2,-37],[21,-32],[33,3],[-8,-71],[-65,-36],[-11,-77],[7,-83],[23,-78],[41,4],[40,-31],[39,35],[22,-18],[-16,-97],[-18,-61],[23,-16],[36,23],[-7,-65],[16,-29],[37,0],[-90,-80],[-13,27],[-42,-2],[-13,-44],[46,7],[-4,-47],[23,-40],[26,11],[-13,42],[21,38],[27,1],[9,-48],[30,-29],[32,56],[23,-59],[5,-76],[54,-3],[-26,-42],[6,-22],[75,-17],[-5,61],[74,2],[27,-33],[11,-27],[36,5],[42,-38],[-7,-82],[28,-12],[21,51],[68,-22],[-13,80],[29,12],[61,-57],[34,18],[30,-27],[28,-64],[8,-83],[45,12],[-20,-102],[68,-50],[-4,-28],[-43,19],[-32,-10],[10,-47],[41,31],[28,-47],[-28,-29],[-37,-6],[5,-33],[18,-26],[50,-7],[-25,-41],[12,-27],[87,14],[10,-26],[-26,-64],[55,-2],[30,-26],[-4,-29],[-31,-40],[57,-28],[-16,-38],[-7,-90],[10,-22],[79,-16],[-23,-52],[-15,-65],[7,-38],[68,-55],[-36,-42],[-10,-48],[-59,13],[-32,-37],[18,-25],[41,22],[23,-41],[-12,-27],[-70,28],[0,-34],[103,-26],[65,3],[87,-44],[50,22],[46,-66],[-17,-42],[-21,-1],[-12,53],[-17,9],[-26,-44],[-40,-31],[35,-49],[121,-25],[-10,-42],[36,-39],[19,43],[52,-4],[-3,-40],[51,-40],[-19,-65],[48,-7],[27,-41],[11,-94],[43,21],[57,-84],[35,6],[46,-50],[27,1],[104,-34],[-67,-66],[74,-68],[58,18],[35,-18],[8,-43],[48,-28],[17,32],[31,-36],[-9,-34],[109,-57],[46,11],[24,49],[51,-22],[10,-55],[42,26],[27,-76],[-58,31],[-30,-16],[-22,-56],[38,7],[16,-53],[33,-34],[63,-33],[70,-50],[38,-19],[-23,-38],[35,-4],[57,-48],[1,-25],[-49,-28],[-1,-59],[-41,-26],[40,-60],[37,4],[-14,-49],[42,-20],[-9,-62],[-64,-64],[83,-8],[-7,-54],[71,-41],[-54,-111],[-20,11],[-59,-26],[-20,-33],[13,-58],[43,-8],[19,-32],[26,32],[24,-54],[36,13],[-9,-78],[30,-27],[-45,-47],[-40,0],[-15,-33],[63,0],[-20,-32],[38,-47],[44,-30],[-40,-86],[-3,-83],[6,-81],[-10,-51],[21,-30],[39,29],[-11,-71],[37,-10],[-15,-34],[30,-51],[58,-6],[22,-72],[30,-15],[27,-62],[53,-16],[32,-39],[-76,-3],[30,-67],[25,-15],[34,8],[0,-47],[-29,-117],[17,-26],[30,-102],[16,-17],[39,20],[14,-38],[-45,-50],[44,-48],[72,-64],[7,-45],[-27,-77],[50,-35],[-11,-56],[44,16],[18,-80],[-4,-41],[31,-20],[9,41],[43,-90],[-22,-4],[12,-99],[-2,-40],[29,-88],[5,-57],[-26,-39],[46,-15],[18,-58],[-12,-48],[17,-28],[-39,-39],[20,-25],[-34,-30],[-20,-41],[14,-41],[-19,-39],[-2,-65],[-47,6],[-26,-14],[13,-70],[13,-21],[-11,-45],[38,1],[0,-52],[13,-42],[-50,5],[-26,-65],[10,-17],[-34,-39],[73,-74],[-9,-60],[-46,-48],[16,-54],[-42,6],[-29,-54],[30,-25],[-16,-37],[55,29],[4,-57],[39,-4],[-13,-49],[18,-39],[-31,-51],[50,-27],[30,33],[25,-27],[-6,-63],[38,-15],[28,-67],[-43,-20],[-47,-41],[10,-44],[78,-1],[20,-84],[-32,-44],[20,-46],[-45,-59],[-8,-44],[-41,17],[-43,-5],[-9,-70],[42,-18],[-20,-25],[-33,3],[-10,-45],[64,15],[23,-39],[-41,-49],[-67,30],[6,-46],[-29,-48],[-40,-40],[-11,-47],[-38,15],[-14,-40],[25,-111],[-64,3],[9,-68],[-44,34],[22,-72],[50,7],[-11,-48],[8,-44],[-44,20],[-20,-43],[37,-17],[-26,-36],[40,-22],[64,-51],[-18,-50],[-47,-77],[-38,-4],[-47,-42],[38,-61],[-65,-3],[-18,-65],[-26,33],[-39,-1],[-16,47],[-25,-12],[21,-69],[-5,-32],[-44,6],[20,57],[-26,4],[-27,-33],[-6,-116],[-13,-52],[-38,-10],[30,-51],[51,11],[21,-49],[-42,-32],[-19,28],[-61,-82],[-27,-20],[-17,58],[-24,-41],[11,-65],[-5,-54],[-23,-49],[29,-29],[-21,-33],[34,-36],[-23,-33],[34,-29],[-1,64],[20,14],[30,-41],[-14,-69],[-29,-33],[30,-28],[61,22],[33,-33],[-3,-61],[-52,14],[6,-32],[61,-21],[-67,-49],[39,-31],[22,-53],[-33,-16],[-20,-66],[-24,8],[-22,-67],[29,-30],[-22,-57],[17,-52],[30,-18],[-25,-35],[-23,7],[-3,-126],[-26,9],[-16,-43],[18,-43],[-55,0],[-20,-109],[33,-28],[-23,-33],[-50,-38],[-45,-80],[60,-39],[-17,-40],[-43,-4],[25,-55],[59,-6],[-73,-141],[-18,-131],[39,-35],[-1,-25],[-46,-41],[37,-62],[32,-95],[31,-13],[-11,-47],[15,-74],[-23,-24],[36,-41],[-16,-48],[28,-31],[22,-50],[16,-65],[-20,-75],[34,-46],[24,-85],[-26,-26],[-23,-85],[19,-42],[-5,-33],[-29,-2],[-2,-36],[20,-27],[20,-75],[50,-7],[-9,-46],[21,-13],[-27,-54],[3,-32],[-10,-27],[-35,4],[-26,-27],[-42,-11],[25,-67],[17,-15],[-27,-74],[20,-53],[-20,-30],[22,-88],[-27,-33],[18,-20],[38,2],[13,-73],[-7,-38],[14,-34],[-16,-29],[-36,1],[11,-41],[40,-17],[23,-39],[45,-45],[96,35],[7,-59],[-29,-23],[-32,-108],[41,-66],[-1,-72],[32,-37],[51,-35],[-31,-97],[29,-20],[-14,-44],[34,-61],[-3,-20],[-49,-45],[19,-53],[-7,-44],[19,-76],[26,-28],[-25,-111],[-24,-51],[20,-60],[-39,-29],[69,-14],[13,-22],[-14,-46],[-77,-35],[-37,-90],[-23,-32],[-34,28],[-82,-29],[-18,39],[-34,-5],[-17,-42],[-48,-24],[-7,-25],[-49,-48],[-6,-34],[12,-53],[53,-43],[24,-54],[33,-16],[30,-54],[-2,-42],[19,-29],[56,20],[17,23],[30,-12],[18,-79],[22,8],[10,-57],[38,2],[-11,-59],[28,-61],[22,-13],[-2,-91],[7,-78],[-36,-5],[37,-60],[-21,-57],[9,-37],[-6,-65],[46,8],[25,-55],[11,-89],[18,-17],[13,-54],[18,-24],[75,-26],[43,-28],[65,-11],[182,-77],[51,-31],[60,-74],[37,-100],[0,-62],[-14,-176],[7,-49],[42,-99],[32,-54],[71,-161],[31,-97],[77,-163],[51,-82],[32,-32],[96,-47],[113,-66],[104,-49],[181,-100],[54,-15],[195,-106],[90,-57],[115,-55],[149,-110],[41,-12],[161,-22],[172,-10],[205,-70],[127,-87],[71,-20],[44,3],[96,48],[33,30],[93,23],[99,12],[37,16],[25,35],[-2,54],[-56,65],[-55,23],[-45,49],[-50,116],[-3,48],[26,41],[52,17],[74,-6],[64,22],[41,66],[22,70],[-13,34],[-86,56],[-32,33],[18,51],[53,38],[44,20],[77,1],[35,-25],[48,-76],[62,-54],[51,-15],[64,9],[32,-10],[81,-100],[51,-66],[79,-79],[59,-45],[55,-19],[67,23],[20,37],[11,60],[-4,38],[-30,90],[59,152],[28,46],[91,-3],[72,39],[57,67],[65,37],[48,29],[77,78],[47,-13],[35,10],[82,61],[46,55],[98,3],[43,22],[40,38],[62,18],[103,46],[95,56],[62,61],[19,73],[68,45],[72,16],[73,49],[58,74],[71,26],[40,-17],[61,-46],[83,-12],[68,33],[32,34],[67,101],[60,15],[33,-15],[60,-57],[56,-20],[82,9],[36,15],[48,-28],[41,0],[58,34],[53,18],[56,1],[33,-58],[24,-21],[119,-47],[79,-53],[124,-29],[99,-38],[100,-30],[119,-71],[50,-46],[83,-60],[77,-99],[133,-208],[109,-126],[21,-46],[39,-139],[22,-50],[16,-67],[0,-76],[35,-145],[6,-84],[-67,-71],[-26,-80],[15,-122],[22,-56],[20,-90],[49,-90],[9,-37],[-43,2],[-6,24],[-51,25],[-82,61],[-48,47],[-17,-27],[-24,-37],[-5,-40],[14,-62],[27,-208],[21,-98],[44,-73],[67,-10],[96,9],[128,53],[-27,-43],[-68,-83],[-59,-128],[-44,-118],[-45,-189],[-16,-111],[-9,-139],[-10,-74],[3,-41],[-20,-167],[-10,-148],[-19,-189],[8,-25],[-11,-87],[-42,-266],[-39,-283],[-9,-335],[-28,-3],[-69,-65],[-3,-39],[24,-114],[14,-21],[-18,-91],[-84,-177],[-52,-86],[-84,-122],[-77,-100],[-99,-77],[-90,-51],[-85,-16],[-40,6],[-8,34],[117,-2],[63,41],[3,42],[102,14],[33,31],[108,145],[41,47],[22,53],[38,49],[12,43],[72,118],[-44,-4],[-72,-70],[-57,10],[-40,-66],[-71,-67],[-24,13],[-128,0],[-95,-14],[-56,-22],[-286,-64],[-26,-11],[-236,-50],[-130,-15],[-202,1],[-87,-17],[-196,-21],[-136,-25],[-132,-41],[-48,-31],[-112,-57],[-17,25],[-140,-40],[-194,-104],[-69,-55],[-122,-108],[-138,-151],[-152,-192],[-178,-260],[-4,-21],[-56,-84],[-73,-135],[-47,-44],[-25,-50],[-28,-29],[-43,-108],[-6,-42],[-76,-187],[-108,-251],[-94,-221],[-90,-196],[-68,-126],[-100,-160],[-80,-98],[-59,-84],[-43,-46],[-118,-168],[-56,-97],[-24,-21],[-14,-14],[-80,-127],[-108,-182],[-27,-53],[-49,-61],[-66,-154],[-31,-119],[-17,-28],[-38,11],[-8,-30],[-74,15],[-24,-39],[-13,-66],[-29,-35],[186,-12],[0,-11],[-104,10],[-154,7],[-23,-54],[-48,-180],[-16,-127],[-4,-84],[3,-190],[18,-106],[18,-76],[36,-82],[52,-36],[28,-33],[-5,-41],[25,-82],[-3,-114],[27,-86],[-49,-39],[-9,-48],[-29,-50],[10,-111],[66,25],[6,-24],[-64,-40],[10,-34],[39,3],[4,-61],[-68,-18],[-8,-87],[2,-56],[-8,-82],[28,-2],[5,71],[100,-7],[-1,-46],[146,-9],[-1,-101],[-28,-28],[-106,5],[-130,-37],[-28,-62],[2,-66],[14,-44],[-4,-40],[25,-125],[34,-65],[8,-52],[23,-38],[22,-129],[10,-31],[-10,-38],[10,-88],[13,-25],[-1,-47],[-25,-17],[-34,-66],[3,-26],[-7,-49],[-67,-91],[-14,-50],[-1,-93],[-29,-56],[15,-82],[-9,-24],[-33,-82],[-21,-12],[-27,-74],[-19,-13],[-46,-191],[-3,-76],[16,-159],[-40,-46],[-41,-26],[-11,-30],[7,-85],[-30,-167],[-28,-26],[-15,-82],[-15,-18],[55,-22],[-28,-31],[-10,-186],[-16,-41],[-6,-59],[24,-84],[-1,-61],[-689,-43],[-367,114],[-143,44],[-582,55],[-513,274],[-114,59],[-266,178],[-255,164],[-61,28],[-51,24],[-93,500],[-116,338],[-32,249],[-19,135],[-69,97],[-73,105],[-382,-360],[-464,-70],[-85,-41],[-145,50],[-12,39],[-177,568],[-156,156],[-165,-308],[-623,75],[-121,14],[-361,-87],[-149,228],[-76,171],[-234,94],[-103,47],[-3,68],[-57,92],[-15,48],[-3,53],[41,38],[-39,46],[7,61],[-34,35],[-68,-14]]],"transform":{"scale":[0.0001923212413162367,0.00011611725601484734],"translate":[20.263081077403246,43.61901922041906]},"objects":{"ro_admin_country_simplified_polygon":{"type":"GeometryCollection","geometries":[{"arcs":[[0]],"type":"Polygon","properties":{"id":1,"version":"2025-03-26","country":"RO","name":"România"}}]}}}